{
"type": "FeatureCollection",
"name": "alpine_hut",
"crs": { "type": "name", "properties": { "name": "urn:ogc:def:crs:OGC:1.3:CRS84" } },
"features": [
{ "type": "Feature", "properties": { "osm_id": "251403227", "code": 2423, "fclass": "alpine_hut", "name": "Mischabelhütte" }, "geometry": { "type": "Point", "coordinates": [ 7.8888023, 46.1094153 ] } },
{ "type": "Feature", "properties": { "osm_id": "264130866", "code": 2423, "fclass": "alpine_hut", "name": "Rifugio Sant'Anna" }, "geometry": { "type": "Point", "coordinates": [ 8.8147565, 46.1051958 ] } },
{ "type": "Feature", "properties": { "osm_id": "270447880", "code": 2423, "fclass": "alpine_hut", "name": "Capanna Piandios" }, "geometry": { "type": "Point", "coordinates": [ 8.884226, 46.4814914 ] } },
{ "type": "Feature", "properties": { "osm_id": "283105123", "code": 2423, "fclass": "alpine_hut", "name": "Berggasthaus Gumen" }, "geometry": { "type": "Point", "coordinates": [ 8.9848057, 46.9562198 ] } },
{ "type": "Feature", "properties": { "osm_id": "294171060", "code": 2423, "fclass": "alpine_hut", "name": "Berggasthaus Trift" }, "geometry": { "type": "Point", "coordinates": [ 7.7210708, 46.0300393 ] } },
{ "type": "Feature", "properties": { "osm_id": "302898492", "code": 2423, "fclass": "alpine_hut", "name": "Cabane de Mille" }, "geometry": { "type": "Point", "coordinates": [ 7.2065712, 46.0136689 ] } },
{ "type": "Feature", "properties": { "osm_id": "309750964", "code": 2423, "fclass": "alpine_hut", "name": "Cabane Brunet" }, "geometry": { "type": "Point", "coordinates": [ 7.274198, 46.0303392 ] } },
{ "type": "Feature", "properties": { "osm_id": "309753126", "code": 2423, "fclass": "alpine_hut", "name": "Cabane de Valsorey" }, "geometry": { "type": "Point", "coordinates": [ 7.2717577, 45.9303685 ] } },
{ "type": "Feature", "properties": { "osm_id": "309753131", "code": 2423, "fclass": "alpine_hut", "name": "Cabane du Vélan" }, "geometry": { "type": "Point", "coordinates": [ 7.2454615, 45.9169357 ] } },
{ "type": "Feature", "properties": { "osm_id": "309753135", "code": 2423, "fclass": "alpine_hut", "name": "Cabane FXB Panossière" }, "geometry": { "type": "Point", "coordinates": [ 7.2997576, 45.9987224 ] } },
{ "type": "Feature", "properties": { "osm_id": "309757022", "code": 2423, "fclass": "alpine_hut", "name": "Cabane de Saleinaz CAS" }, "geometry": { "type": "Point", "coordinates": [ 7.0703669, 45.9764385 ] } },
{ "type": "Feature", "properties": { "osm_id": "309758417", "code": 2423, "fclass": "alpine_hut", "name": "Cabane de Bertol CAS" }, "geometry": { "type": "Point", "coordinates": [ 7.5276735, 46.0060198 ] } },
{ "type": "Feature", "properties": { "osm_id": "309759750", "code": 2423, "fclass": "alpine_hut", "name": "Cabane Mont Fort" }, "geometry": { "type": "Point", "coordinates": [ 7.2810532, 46.0835573 ] } },
{ "type": "Feature", "properties": { "osm_id": "316985701", "code": 2423, "fclass": "alpine_hut", "name": "Britanniahütte" }, "geometry": { "type": "Point", "coordinates": [ 7.9350236, 46.0600605 ] } },
{ "type": "Feature", "properties": { "osm_id": "413544181", "code": 2423, "fclass": "alpine_hut", "name": "Capanna Brogoldone" }, "geometry": { "type": "Point", "coordinates": [ 9.0633216, 46.2628804 ] } },
{ "type": "Feature", "properties": { "osm_id": "426925727", "code": 2423, "fclass": "alpine_hut", "name": "Metzg-Hütte" }, "geometry": { "type": "Point", "coordinates": [ 8.6760193, 46.9658846 ] } },
{ "type": "Feature", "properties": { "osm_id": "441570713", "code": 2423, "fclass": "alpine_hut", "name": "Reutsperre" }, "geometry": { "type": "Point", "coordinates": [ 8.1789421, 46.7001922 ] } },
{ "type": "Feature", "properties": { "osm_id": "445505188", "code": 2423, "fclass": "alpine_hut", "name": "Martinsmadhütte" }, "geometry": { "type": "Point", "coordinates": [ 9.1883141, 46.8925555 ] } },
{ "type": "Feature", "properties": { "osm_id": "449340086", "code": 2423, "fclass": "alpine_hut", "name": "Capanna Gesero" }, "geometry": { "type": "Point", "coordinates": [ 9.120836, 46.1814054 ] } },
{ "type": "Feature", "properties": { "osm_id": "452629133", "code": 2423, "fclass": "alpine_hut", "name": "Capanna Cadagno" }, "geometry": { "type": "Point", "coordinates": [ 8.7196139, 46.5465894 ] } },
{ "type": "Feature", "properties": { "osm_id": "454394985", "code": 2423, "fclass": "alpine_hut", "name": "Rotstockhütte" }, "geometry": { "type": "Point", "coordinates": [ 7.8383217, 46.5451558 ] } },
{ "type": "Feature", "properties": { "osm_id": "454394987", "code": 2423, "fclass": "alpine_hut", "name": "Spielbodenalp" }, "geometry": { "type": "Point", "coordinates": [ 7.8739087, 46.548842 ] } },
{ "type": "Feature", "properties": { "osm_id": "454641956", "code": 2423, "fclass": "alpine_hut", "name": "Hinterbalmhütte" }, "geometry": { "type": "Point", "coordinates": [ 8.7984837, 46.7795427 ] } },
{ "type": "Feature", "properties": { "osm_id": "454642322", "code": 2423, "fclass": "alpine_hut", "name": "Cavardirashütte" }, "geometry": { "type": "Point", "coordinates": [ 8.8142692, 46.742437 ] } },
{ "type": "Feature", "properties": { "osm_id": "456418356", "code": 2423, "fclass": "alpine_hut", "name": "Capanna Dötra" }, "geometry": { "type": "Point", "coordinates": [ 8.8796428, 46.5316836 ] } },
{ "type": "Feature", "properties": { "osm_id": "458393161", "code": 2423, "fclass": "alpine_hut", "name": "Cabane des Diablerets" }, "geometry": { "type": "Point", "coordinates": [ 7.2154746, 46.3386913 ] } },
{ "type": "Feature", "properties": { "osm_id": "458393162", "code": 2423, "fclass": "alpine_hut", "name": "Refuge de Pierredar" }, "geometry": { "type": "Point", "coordinates": [ 7.1948249, 46.3212719 ] } },
{ "type": "Feature", "properties": { "osm_id": "458867305", "code": 2423, "fclass": "alpine_hut", "name": "Refuge Igloo des Pantalons Blancs" }, "geometry": { "type": "Point", "coordinates": [ 7.3685212, 46.0405376 ] } },
{ "type": "Feature", "properties": { "osm_id": "461016641", "code": 2423, "fclass": "alpine_hut", "name": "Brisenhaus" }, "geometry": { "type": "Point", "coordinates": [ 8.4642399, 46.9149045 ] } },
{ "type": "Feature", "properties": { "osm_id": "479305503", "code": 2423, "fclass": "alpine_hut", "name": "Berghaus Diavolezza" }, "geometry": { "type": "Point", "coordinates": [ 9.96505, 46.4122405 ] } },
{ "type": "Feature", "properties": { "osm_id": "492480491", "code": 2423, "fclass": "alpine_hut", "name": "Kletterhütte Bockmattli" }, "geometry": { "type": "Point", "coordinates": [ 8.9503274, 47.0994728 ] } },
{ "type": "Feature", "properties": { "osm_id": "502559697", "code": 2423, "fclass": "alpine_hut", "name": "Capanna Adula CAS" }, "geometry": { "type": "Point", "coordinates": [ 8.9956133, 46.4991793 ] } },
{ "type": "Feature", "properties": { "osm_id": "502559712", "code": 2423, "fclass": "alpine_hut", "name": "Capanna Alzasca" }, "geometry": { "type": "Point", "coordinates": [ 8.5892998, 46.2712792 ] } },
{ "type": "Feature", "properties": { "osm_id": "502559739", "code": 2423, "fclass": "alpine_hut", "name": "Capanna Basodino CAS" }, "geometry": { "type": "Point", "coordinates": [ 8.514129, 46.439542 ] } },
{ "type": "Feature", "properties": { "osm_id": "502559748", "code": 2423, "fclass": "alpine_hut", "name": "Refuge des Bouquetins CAS" }, "geometry": { "type": "Point", "coordinates": [ 7.5305159, 45.9708752 ] } },
{ "type": "Feature", "properties": { "osm_id": "502559755", "code": 2423, "fclass": "alpine_hut", "name": "Capanna Campo Tencia" }, "geometry": { "type": "Point", "coordinates": [ 8.7326694, 46.4442266 ] } },
{ "type": "Feature", "properties": { "osm_id": "502559768", "code": 2423, "fclass": "alpine_hut", "name": "Capanna Corno Gries CAS" }, "geometry": { "type": "Point", "coordinates": [ 8.4100474, 46.4670761 ] } },
{ "type": "Feature", "properties": { "osm_id": "502559776", "code": 2423, "fclass": "alpine_hut", "name": "Dammahütte SAC" }, "geometry": { "type": "Point", "coordinates": [ 8.4577823, 46.6448663 ] } },
{ "type": "Feature", "properties": { "osm_id": "502559811", "code": 2423, "fclass": "alpine_hut", "name": "Col de la Dent Blanche CAS Bivouac" }, "geometry": { "type": "Point", "coordinates": [ 7.6070861, 46.041928 ] } },
{ "type": "Feature", "properties": { "osm_id": "502559863", "code": 2423, "fclass": "alpine_hut", "name": "Guggihütte" }, "geometry": { "type": "Point", "coordinates": [ 7.9743995, 46.5627465 ] } },
{ "type": "Feature", "properties": { "osm_id": "502559868", "code": 2423, "fclass": "alpine_hut", "name": "Glattalphütte" }, "geometry": { "type": "Point", "coordinates": [ 8.8750058, 46.9168403 ] } },
{ "type": "Feature", "properties": { "osm_id": "502559876", "code": 2423, "fclass": "alpine_hut", "name": "Hüfihütte" }, "geometry": { "type": "Point", "coordinates": [ 8.8189945, 46.8018251 ] } },
{ "type": "Feature", "properties": { "osm_id": "502559893", "code": 2423, "fclass": "alpine_hut", "name": "Gspaltenhornhütte SAC" }, "geometry": { "type": "Point", "coordinates": [ 7.8102627, 46.5126918 ] } },
{ "type": "Feature", "properties": { "osm_id": "502559908", "code": 2423, "fclass": "alpine_hut", "name": "Monte Leone-Hütte" }, "geometry": { "type": "Point", "coordinates": [ 8.0803184, 46.2607415 ] } },
{ "type": "Feature", "properties": { "osm_id": "502559914", "code": 2423, "fclass": "alpine_hut", "name": "Camona da Medel CAS" }, "geometry": { "type": "Point", "coordinates": [ 8.9138109, 46.6405072 ] } },
{ "type": "Feature", "properties": { "osm_id": "502559919", "code": 2423, "fclass": "alpine_hut", "name": "Camona da Maighels CAS" }, "geometry": { "type": "Point", "coordinates": [ 8.6901242, 46.6253633 ] } },
{ "type": "Feature", "properties": { "osm_id": "502559963", "code": 2423, "fclass": "alpine_hut", "name": "Täschhütte" }, "geometry": { "type": "Point", "coordinates": [ 7.8300141, 46.0515706 ] } },
{ "type": "Feature", "properties": { "osm_id": "502559966", "code": 2423, "fclass": "alpine_hut", "name": "L'Aiguillette à la Singla CAS Bivouac" }, "geometry": { "type": "Point", "coordinates": [ 7.4540817, 45.9414738 ] } },
{ "type": "Feature", "properties": { "osm_id": "502559977", "code": 2423, "fclass": "alpine_hut", "name": "Weisshornhütte SAC" }, "geometry": { "type": "Point", "coordinates": [ 7.7435851, 46.0859641 ] } },
{ "type": "Feature", "properties": { "osm_id": "502925545", "code": 2423, "fclass": "alpine_hut", "name": "Engelhornhütte" }, "geometry": { "type": "Point", "coordinates": [ 8.1728265, 46.6831781 ] } },
{ "type": "Feature", "properties": { "osm_id": "505804029", "code": 2423, "fclass": "alpine_hut", "name": "Eiger-Ostegghütte" }, "geometry": { "type": "Point", "coordinates": [ 8.0411805, 46.6003942 ] } },
{ "type": "Feature", "properties": { "osm_id": "514017580", "code": 2423, "fclass": "alpine_hut", "name": "Sidelenhütte" }, "geometry": { "type": "Point", "coordinates": [ 8.4267493, 46.5974645 ] } },
{ "type": "Feature", "properties": { "osm_id": "521161221", "code": 2423, "fclass": "alpine_hut", "name": "Oberaar" }, "geometry": { "type": "Point", "coordinates": [ 8.2775108, 46.5488746 ] } },
{ "type": "Feature", "properties": { "osm_id": "567341871", "code": 2423, "fclass": "alpine_hut", "name": "Cabane Bella-Tola" }, "geometry": { "type": "Point", "coordinates": [ 7.6143013, 46.2328879 ] } },
{ "type": "Feature", "properties": { "osm_id": "567918331", "code": 2423, "fclass": "alpine_hut", "name": "Tannhütte NFS" }, "geometry": { "type": "Point", "coordinates": [ 9.4476311, 47.266992 ] } },
{ "type": "Feature", "properties": { "osm_id": "568030396", "code": 2423, "fclass": "alpine_hut", "name": "Cabane du Plan du Jeu" }, "geometry": { "type": "Point", "coordinates": [ 7.2055861, 45.9024798 ] } },
{ "type": "Feature", "properties": { "osm_id": "599053941", "code": 2423, "fclass": "alpine_hut", "name": "Capanna Borgna" }, "geometry": { "type": "Point", "coordinates": [ 8.9250628, 46.2295352 ] } },
{ "type": "Feature", "properties": { "osm_id": "606276003", "code": 2423, "fclass": "alpine_hut", "name": "Naturfreundehaus Rumpel" }, "geometry": { "type": "Point", "coordinates": [ 7.8663787, 47.3603315 ] } },
{ "type": "Feature", "properties": { "osm_id": "619481245", "code": 2423, "fclass": "alpine_hut", "name": "Hubelhütte" }, "geometry": { "type": "Point", "coordinates": [ 9.8144306, 46.7473744 ] } },
{ "type": "Feature", "properties": { "osm_id": "622567141", "code": 2423, "fclass": "alpine_hut", "name": "La Jaique" }, "geometry": { "type": "Point", "coordinates": [ 6.1866994, 46.6251038 ] } },
{ "type": "Feature", "properties": { "osm_id": "691039123", "code": 2423, "fclass": "alpine_hut", "name": "Capanna Grossalp" }, "geometry": { "type": "Point", "coordinates": [ 8.4712184, 46.316514 ] } },
{ "type": "Feature", "properties": { "osm_id": "732210826", "code": 2423, "fclass": "alpine_hut", "name": null }, "geometry": { "type": "Point", "coordinates": [ 7.384664, 47.2223309 ] } },
{ "type": "Feature", "properties": { "osm_id": "765901189", "code": 2423, "fclass": "alpine_hut", "name": "Rifugio Föisc" }, "geometry": { "type": "Point", "coordinates": [ 8.6679764, 46.5330218 ] } },
{ "type": "Feature", "properties": { "osm_id": "768420889", "code": 2423, "fclass": "alpine_hut", "name": "Cabane de l'Écureuil" }, "geometry": { "type": "Point", "coordinates": [ 6.2186355, 46.5374589 ] } },
{ "type": "Feature", "properties": { "osm_id": "806852750", "code": 2423, "fclass": "alpine_hut", "name": "Federihütte" }, "geometry": { "type": "Point", "coordinates": [ 9.0811966, 47.1690125 ] } },
{ "type": "Feature", "properties": { "osm_id": "810642741", "code": 2423, "fclass": "alpine_hut", "name": "Segnespass Mountain Lodge" }, "geometry": { "type": "Point", "coordinates": [ 9.2246464, 46.902215 ] } },
{ "type": "Feature", "properties": { "osm_id": "849977275", "code": 2423, "fclass": "alpine_hut", "name": "Refuge Le Peuty" }, "geometry": { "type": "Point", "coordinates": [ 6.9939012, 46.0466343 ] } },
{ "type": "Feature", "properties": { "osm_id": "926803016", "code": 2423, "fclass": "alpine_hut", "name": "Inneralp" }, "geometry": { "type": "Point", "coordinates": [ 9.5131916, 47.305714 ] } },
{ "type": "Feature", "properties": { "osm_id": "926803025", "code": 2423, "fclass": "alpine_hut", "name": "Eichenwieser Schwamm" }, "geometry": { "type": "Point", "coordinates": [ 9.5022738, 47.3117896 ] } },
{ "type": "Feature", "properties": { "osm_id": "929432254", "code": 2423, "fclass": "alpine_hut", "name": "Capanna Leit" }, "geometry": { "type": "Point", "coordinates": [ 8.7188172, 46.4669219 ] } },
{ "type": "Feature", "properties": { "osm_id": "936745007", "code": 2423, "fclass": "alpine_hut", "name": "Cabane de la Tsissette" }, "geometry": { "type": "Point", "coordinates": [ 7.1554863, 45.9537591 ] } },
{ "type": "Feature", "properties": { "osm_id": "939635834", "code": 2423, "fclass": "alpine_hut", "name": "Rifugio Tomeo" }, "geometry": { "type": "Point", "coordinates": [ 8.6888105, 46.3661038 ] } },
{ "type": "Feature", "properties": { "osm_id": "1189809806", "code": 2423, "fclass": "alpine_hut", "name": "Tanzbodenhütte" }, "geometry": { "type": "Point", "coordinates": [ 9.1058501, 47.2201601 ] } },
{ "type": "Feature", "properties": { "osm_id": "1212971626", "code": 2423, "fclass": "alpine_hut", "name": "Sustlihütte SAC" }, "geometry": { "type": "Point", "coordinates": [ 8.4707938, 46.7517064 ] } },
{ "type": "Feature", "properties": { "osm_id": "1329988239", "code": 2423, "fclass": "alpine_hut", "name": null }, "geometry": { "type": "Point", "coordinates": [ 6.8430224, 47.022972 ] } },
{ "type": "Feature", "properties": { "osm_id": "1331208175", "code": 2423, "fclass": "alpine_hut", "name": "La Bouennaz" }, "geometry": { "type": "Point", "coordinates": [ 6.4028526, 46.5798144 ] } },
{ "type": "Feature", "properties": { "osm_id": "1341552316", "code": 2423, "fclass": "alpine_hut", "name": "Capanna dei Monti di Lego" }, "geometry": { "type": "Point", "coordinates": [ 8.8317723, 46.1988368 ] } },
{ "type": "Feature", "properties": { "osm_id": "1349631178", "code": 2423, "fclass": "alpine_hut", "name": "Capanna Quarnei" }, "geometry": { "type": "Point", "coordinates": [ 9.0236542, 46.473108 ] } },
{ "type": "Feature", "properties": { "osm_id": "1357042368", "code": 2423, "fclass": "alpine_hut", "name": "Gruppenunterkunft Mettlenalp" }, "geometry": { "type": "Point", "coordinates": [ 7.9416877, 46.9938611 ] } },
{ "type": "Feature", "properties": { "osm_id": "1374047635", "code": 2423, "fclass": "alpine_hut", "name": "Hauderalp" }, "geometry": { "type": "Point", "coordinates": [ 9.7797189, 46.7167154 ] } },
{ "type": "Feature", "properties": { "osm_id": "1384171668", "code": 2423, "fclass": "alpine_hut", "name": "Brunnialp" }, "geometry": { "type": "Point", "coordinates": [ 7.7817908, 46.6257797 ] } },
{ "type": "Feature", "properties": { "osm_id": "1386596356", "code": 2423, "fclass": "alpine_hut", "name": "Stock" }, "geometry": { "type": "Point", "coordinates": [ 7.6559866, 46.4643652 ] } },
{ "type": "Feature", "properties": { "osm_id": "1386596359", "code": 2423, "fclass": "alpine_hut", "name": "Winteregghütte" }, "geometry": { "type": "Point", "coordinates": [ 7.6499369, 46.4604067 ] } },
{ "type": "Feature", "properties": { "osm_id": "1408362656", "code": 2423, "fclass": "alpine_hut", "name": "Berggasthaus Tschingelhorn" }, "geometry": { "type": "Point", "coordinates": [ 7.8933302, 46.523176 ] } },
{ "type": "Feature", "properties": { "osm_id": "1431293779", "code": 2423, "fclass": "alpine_hut", "name": "Capanna Adula UTOE" }, "geometry": { "type": "Point", "coordinates": [ 9.0076299, 46.4953103 ] } },
{ "type": "Feature", "properties": { "osm_id": "1444317646", "code": 2423, "fclass": "alpine_hut", "name": "Capanna Mognone" }, "geometry": { "type": "Point", "coordinates": [ 8.9507598, 46.1963953 ] } },
{ "type": "Feature", "properties": { "osm_id": "1444373827", "code": 2423, "fclass": "alpine_hut", "name": "Capanna Orino" }, "geometry": { "type": "Point", "coordinates": [ 8.9325464, 46.1969831 ] } },
{ "type": "Feature", "properties": { "osm_id": "1444601155", "code": 2423, "fclass": "alpine_hut", "name": "Capanna Albagno" }, "geometry": { "type": "Point", "coordinates": [ 8.9564198, 46.2224779 ] } },
{ "type": "Feature", "properties": { "osm_id": "1455771718", "code": 2423, "fclass": "alpine_hut", "name": "Alp di Fora" }, "geometry": { "type": "Point", "coordinates": [ 9.1392059, 46.297043 ] } },
{ "type": "Feature", "properties": { "osm_id": "1456288909", "code": 2423, "fclass": "alpine_hut", "name": "Wildstrubelhütte" }, "geometry": { "type": "Point", "coordinates": [ 7.4676662, 46.3830189 ] } },
{ "type": "Feature", "properties": { "osm_id": "1458720984", "code": 2423, "fclass": "alpine_hut", "name": "Kinhütte" }, "geometry": { "type": "Point", "coordinates": [ 7.8070923, 46.0885274 ] } },
{ "type": "Feature", "properties": { "osm_id": "1477990680", "code": 2423, "fclass": "alpine_hut", "name": "Refuge de Champvent" }, "geometry": { "type": "Point", "coordinates": [ 6.5503536, 46.7837067 ] } },
{ "type": "Feature", "properties": { "osm_id": "1494606593", "code": 2423, "fclass": "alpine_hut", "name": "Buvette des Brigands" }, "geometry": { "type": "Point", "coordinates": [ 6.7540427, 46.6903405 ] } },
{ "type": "Feature", "properties": { "osm_id": "1523330872", "code": 2423, "fclass": "alpine_hut", "name": "Hohberg" }, "geometry": { "type": "Point", "coordinates": [ 7.3357455, 46.6757824 ] } },
{ "type": "Feature", "properties": { "osm_id": "1541332254", "code": 2423, "fclass": "alpine_hut", "name": "Alp Suvretta" }, "geometry": { "type": "Point", "coordinates": [ 9.7944505, 46.491475 ] } },
{ "type": "Feature", "properties": { "osm_id": "1541334427", "code": 2423, "fclass": "alpine_hut", "name": "Alp Giop" }, "geometry": { "type": "Point", "coordinates": [ 9.820307, 46.4960654 ] } },
{ "type": "Feature", "properties": { "osm_id": "1541345785", "code": 2423, "fclass": "alpine_hut", "name": "Alp Nova" }, "geometry": { "type": "Point", "coordinates": [ 9.8289577, 46.5047785 ] } },
{ "type": "Feature", "properties": { "osm_id": "1576617817", "code": 2423, "fclass": "alpine_hut", "name": "Pra Cornet" }, "geometry": { "type": "Point", "coordinates": [ 7.1323733, 46.4044007 ] } },
{ "type": "Feature", "properties": { "osm_id": "1652116747", "code": 2423, "fclass": "alpine_hut", "name": "Alp Natons" }, "geometry": { "type": "Point", "coordinates": [ 9.652005, 46.4928284 ] } },
{ "type": "Feature", "properties": { "osm_id": "1749539210", "code": 2423, "fclass": "alpine_hut", "name": "Hohfläsch-Hütte" }, "geometry": { "type": "Point", "coordinates": [ 8.9397199, 47.0818023 ] } },
{ "type": "Feature", "properties": { "osm_id": "1791356848", "code": 2423, "fclass": "alpine_hut", "name": "Rifugio Alpetto di Caviano" }, "geometry": { "type": "Point", "coordinates": [ 8.7885014, 46.0993749 ] } },
{ "type": "Feature", "properties": { "osm_id": "1818068910", "code": 2423, "fclass": "alpine_hut", "name": "Bortelhütten" }, "geometry": { "type": "Point", "coordinates": [ 8.0933482, 46.2938617 ] } },
{ "type": "Feature", "properties": { "osm_id": "2028391169", "code": 2423, "fclass": "alpine_hut", "name": "Feyersaga" }, "geometry": { "type": "Point", "coordinates": [ 7.2246239, 46.7054221 ] } },
{ "type": "Feature", "properties": { "osm_id": "2323746001", "code": 2423, "fclass": "alpine_hut", "name": "Capanna di Cava" }, "geometry": { "type": "Point", "coordinates": [ 9.0303116, 46.3575123 ] } },
{ "type": "Feature", "properties": { "osm_id": "2344504403", "code": 2423, "fclass": "alpine_hut", "name": "Berghotel Obersteinberg" }, "geometry": { "type": "Point", "coordinates": [ 7.88549, 46.5181558 ] } },
{ "type": "Feature", "properties": { "osm_id": "2349506772", "code": 2423, "fclass": "alpine_hut", "name": "Berggasthaus Aescher-Wildkirchli" }, "geometry": { "type": "Point", "coordinates": [ 9.4144537, 47.2833952 ] } },
{ "type": "Feature", "properties": { "osm_id": "2392556626", "code": 2423, "fclass": "alpine_hut", "name": "Alp Schrina" }, "geometry": { "type": "Point", "coordinates": [ 9.2614107, 47.1411648 ] } },
{ "type": "Feature", "properties": { "osm_id": "2400526754", "code": 2423, "fclass": "alpine_hut", "name": "Refuge d’ Airoz (Refuge d’ Aïroz)" }, "geometry": { "type": "Point", "coordinates": [ 7.2746129, 46.2663815 ] } },
{ "type": "Feature", "properties": { "osm_id": "2470070886", "code": 2423, "fclass": "alpine_hut", "name": "Capanna Ribia" }, "geometry": { "type": "Point", "coordinates": [ 8.5416035, 46.251334 ] } },
{ "type": "Feature", "properties": { "osm_id": "2602026874", "code": 2423, "fclass": "alpine_hut", "name": "Capanna Alpe Saléi" }, "geometry": { "type": "Point", "coordinates": [ 8.5623141, 46.220962 ] } },
{ "type": "Feature", "properties": { "osm_id": "2820208447", "code": 2423, "fclass": "alpine_hut", "name": "La Peule" }, "geometry": { "type": "Point", "coordinates": [ 7.1125852, 45.8986155 ] } },
{ "type": "Feature", "properties": { "osm_id": "2936739108", "code": 2423, "fclass": "alpine_hut", "name": "Bärghus Gastlosen" }, "geometry": { "type": "Point", "coordinates": [ 7.2837098, 46.5955682 ] } },
{ "type": "Feature", "properties": { "osm_id": "2949459124", "code": 2423, "fclass": "alpine_hut", "name": "Capanna Soveltra" }, "geometry": { "type": "Point", "coordinates": [ 8.7109309, 46.4060743 ] } },
{ "type": "Feature", "properties": { "osm_id": "2984109058", "code": 2423, "fclass": "alpine_hut", "name": "Les Pralets" }, "geometry": { "type": "Point", "coordinates": [ 6.1679271, 46.4981427 ] } },
{ "type": "Feature", "properties": { "osm_id": "3012482981", "code": 2423, "fclass": "alpine_hut", "name": "Mittlenberghütte" }, "geometry": { "type": "Point", "coordinates": [ 8.2778547, 46.3855303 ] } },
{ "type": "Feature", "properties": { "osm_id": "3021885871", "code": 2423, "fclass": "alpine_hut", "name": "Plan de l'Au" }, "geometry": { "type": "Point", "coordinates": [ 7.0793438, 46.0501029 ] } },
{ "type": "Feature", "properties": { "osm_id": "3066945123", "code": 2423, "fclass": "alpine_hut", "name": "Rifugio Fiorasca" }, "geometry": { "type": "Point", "coordinates": [ 8.6033536, 46.37953 ] } },
{ "type": "Feature", "properties": { "osm_id": "3066966225", "code": 2423, "fclass": "alpine_hut", "name": "Capanna Piano delle Creste" }, "geometry": { "type": "Point", "coordinates": [ 8.4871572, 46.3910545 ] } },
{ "type": "Feature", "properties": { "osm_id": "3264446971", "code": 2423, "fclass": "alpine_hut", "name": "Capanna Alpe Arena" }, "geometry": { "type": "Point", "coordinates": [ 8.5146727, 46.2325154 ] } },
{ "type": "Feature", "properties": { "osm_id": "3283030825", "code": 2423, "fclass": "alpine_hut", "name": "Rifugio Alpe Repiano" }, "geometry": { "type": "Point", "coordinates": [ 8.925821, 46.3156322 ] } },
{ "type": "Feature", "properties": { "osm_id": "3335142697", "code": 2423, "fclass": "alpine_hut", "name": "Gruebenhütte" }, "geometry": { "type": "Point", "coordinates": [ 8.2593064, 46.6058833 ] } },
{ "type": "Feature", "properties": { "osm_id": "3405824488", "code": 2423, "fclass": "alpine_hut", "name": "Capanna Cadlimo" }, "geometry": { "type": "Point", "coordinates": [ 8.6952501, 46.571636 ] } },
{ "type": "Feature", "properties": { "osm_id": "3405828416", "code": 2423, "fclass": "alpine_hut", "name": "Capanna Garzonera" }, "geometry": { "type": "Point", "coordinates": [ 8.6613904, 46.4989817 ] } },
{ "type": "Feature", "properties": { "osm_id": "3405915010", "code": 2423, "fclass": "alpine_hut", "name": "Capanna Gorda" }, "geometry": { "type": "Point", "coordinates": [ 8.9109304, 46.4980084 ] } },
{ "type": "Feature", "properties": { "osm_id": "3405937126", "code": 2423, "fclass": "alpine_hut", "name": "Capanna Alpe di Nimi" }, "geometry": { "type": "Point", "coordinates": [ 8.7674816, 46.2522284 ] } },
{ "type": "Feature", "properties": { "osm_id": "3406720210", "code": 2423, "fclass": "alpine_hut", "name": "Nucleo di Odro" }, "geometry": { "type": "Point", "coordinates": [ 8.8790146, 46.2285832 ] } },
{ "type": "Feature", "properties": { "osm_id": "3406734808", "code": 2423, "fclass": "alpine_hut", "name": "Capanna Piansecco" }, "geometry": { "type": "Point", "coordinates": [ 8.4714617, 46.4944255 ] } },
{ "type": "Feature", "properties": { "osm_id": "3406761911", "code": 2423, "fclass": "alpine_hut", "name": "Capanna Tremorgio" }, "geometry": { "type": "Point", "coordinates": [ 8.7248928, 46.4816609 ] } },
{ "type": "Feature", "properties": { "osm_id": "3434849771", "code": 2423, "fclass": "alpine_hut", "name": "Skihaus Hochwang" }, "geometry": { "type": "Point", "coordinates": [ 9.6652302, 46.8544397 ] } },
{ "type": "Feature", "properties": { "osm_id": "3440988038", "code": 2423, "fclass": "alpine_hut", "name": "Turrahus" }, "geometry": { "type": "Point", "coordinates": [ 9.2759648, 46.6246605 ] } },
{ "type": "Feature", "properties": { "osm_id": "3667542231", "code": 2423, "fclass": "alpine_hut", "name": "Alp Oberwirtneren" }, "geometry": { "type": "Point", "coordinates": [ 7.4710286, 46.7194474 ] } },
{ "type": "Feature", "properties": { "osm_id": "3769757074", "code": 2423, "fclass": "alpine_hut", "name": "Alp Wisliboda" }, "geometry": { "type": "Point", "coordinates": [ 9.4475301, 47.1252284 ] } },
{ "type": "Feature", "properties": { "osm_id": "3769757075", "code": 2423, "fclass": "alpine_hut", "name": "Schihus Wisliboda" }, "geometry": { "type": "Point", "coordinates": [ 9.4476517, 47.1243233 ] } },
{ "type": "Feature", "properties": { "osm_id": "3790106794", "code": 2423, "fclass": "alpine_hut", "name": "Capanna La Ginestra" }, "geometry": { "type": "Point", "coordinates": [ 8.9819461, 46.0867228 ] } },
{ "type": "Feature", "properties": { "osm_id": "4005499289", "code": 2423, "fclass": "alpine_hut", "name": "Cabane des Monts-Chevreuils" }, "geometry": { "type": "Point", "coordinates": [ 7.0860631, 46.4374912 ] } },
{ "type": "Feature", "properties": { "osm_id": "4149670483", "code": 2423, "fclass": "alpine_hut", "name": "Capanna Genzianella" }, "geometry": { "type": "Point", "coordinates": [ 9.0622676, 46.1790896 ] } },
{ "type": "Feature", "properties": { "osm_id": "4171185142", "code": 2423, "fclass": "alpine_hut", "name": "Capanna La Piana" }, "geometry": { "type": "Point", "coordinates": [ 8.9884589, 45.8866772 ] } },
{ "type": "Feature", "properties": { "osm_id": "4316137023", "code": 2423, "fclass": "alpine_hut", "name": "Capanna Righetti Fibbioli" }, "geometry": { "type": "Point", "coordinates": [ 9.2236734, 46.2579895 ] } },
{ "type": "Feature", "properties": { "osm_id": "4399549524", "code": 2423, "fclass": "alpine_hut", "name": "Cabane d'Arpitettaz" }, "geometry": { "type": "Point", "coordinates": [ 7.6793553, 46.1008928 ] } },
{ "type": "Feature", "properties": { "osm_id": "4399562394", "code": 2423, "fclass": "alpine_hut", "name": "Cabane de Moiry" }, "geometry": { "type": "Point", "coordinates": [ 7.5954924, 46.0906851 ] } },
{ "type": "Feature", "properties": { "osm_id": "4399832720", "code": 2423, "fclass": "alpine_hut", "name": "Cabane de la Tsa" }, "geometry": { "type": "Point", "coordinates": [ 7.5038158, 46.0303483 ] } },
{ "type": "Feature", "properties": { "osm_id": "4411036267", "code": 2423, "fclass": "alpine_hut", "name": "Refuge de Chalin" }, "geometry": { "type": "Point", "coordinates": [ 6.9472064, 46.1792227 ] } },
{ "type": "Feature", "properties": { "osm_id": "4411039606", "code": 2423, "fclass": "alpine_hut", "name": "Cabane d'Anthème" }, "geometry": { "type": "Point", "coordinates": [ 6.9042907, 46.1657706 ] } },
{ "type": "Feature", "properties": { "osm_id": "4411041258", "code": 2423, "fclass": "alpine_hut", "name": "Cabane de Susanfe" }, "geometry": { "type": "Point", "coordinates": [ 6.8980975, 46.1394272 ] } },
{ "type": "Feature", "properties": { "osm_id": "4411068612", "code": 2423, "fclass": "alpine_hut", "name": "Refuge de Bonavau" }, "geometry": { "type": "Point", "coordinates": [ 6.8662398, 46.1508083 ] } },
{ "type": "Feature", "properties": { "osm_id": "4413810221", "code": 2423, "fclass": "alpine_hut", "name": "Cabanne de Plan Névé" }, "geometry": { "type": "Point", "coordinates": [ 7.1443685, 46.2519801 ] } },
{ "type": "Feature", "properties": { "osm_id": "4578044692", "code": 2423, "fclass": "alpine_hut", "name": "Hubelhuus Beatenberg" }, "geometry": { "type": "Point", "coordinates": [ 7.8217329, 46.7040852 ] } },
{ "type": "Feature", "properties": { "osm_id": "4609613310", "code": 2423, "fclass": "alpine_hut", "name": "Refuge de la gare d'Olten" }, "geometry": { "type": "Point", "coordinates": [ 6.4472905, 46.8306173 ] } },
{ "type": "Feature", "properties": { "osm_id": "4718111217", "code": 2423, "fclass": "alpine_hut", "name": "Rifugio Alpe di Confiénn" }, "geometry": { "type": "Point", "coordinates": [ 8.9405709, 46.2465541 ] } },
{ "type": "Feature", "properties": { "osm_id": "4718168454", "code": 2423, "fclass": "alpine_hut", "name": "Rifugio Alpe di Cusale" }, "geometry": { "type": "Point", "coordinates": [ 8.9532128, 46.2359996 ] } },
{ "type": "Feature", "properties": { "osm_id": "4845727222", "code": 2423, "fclass": "alpine_hut", "name": null }, "geometry": { "type": "Point", "coordinates": [ 8.0249344, 46.7342851 ] } },
{ "type": "Feature", "properties": { "osm_id": "4903323422", "code": 2423, "fclass": "alpine_hut", "name": "Curzútt" }, "geometry": { "type": "Point", "coordinates": [ 8.9930572, 46.1943921 ] } },
{ "type": "Feature", "properties": { "osm_id": "4949529835", "code": 2423, "fclass": "alpine_hut", "name": "Etzlihütte" }, "geometry": { "type": "Point", "coordinates": [ 8.720629, 46.7181822 ] } },
{ "type": "Feature", "properties": { "osm_id": "4959996621", "code": 2423, "fclass": "alpine_hut", "name": "Allmi / Läger" }, "geometry": { "type": "Point", "coordinates": [ 7.8545566, 46.7344684 ] } },
{ "type": "Feature", "properties": { "osm_id": "4962763167", "code": 2423, "fclass": "alpine_hut", "name": "Alp Spilau" }, "geometry": { "type": "Point", "coordinates": [ 8.6913107, 46.9244724 ] } },
{ "type": "Feature", "properties": { "osm_id": "4972779619", "code": 2423, "fclass": "alpine_hut", "name": "Gfellalphütte" }, "geometry": { "type": "Point", "coordinates": [ 7.7193265, 46.4399169 ] } },
{ "type": "Feature", "properties": { "osm_id": "4973913998", "code": 2423, "fclass": "alpine_hut", "name": "Ferme Sterchi" }, "geometry": { "type": "Point", "coordinates": [ 6.8478808, 47.1008517 ] } },
{ "type": "Feature", "properties": { "osm_id": "4987947849", "code": 2423, "fclass": "alpine_hut", "name": "Galmihornhütte" }, "geometry": { "type": "Point", "coordinates": [ 8.2428863, 46.4892737 ] } },
{ "type": "Feature", "properties": { "osm_id": "5038347513", "code": 2423, "fclass": "alpine_hut", "name": "Bergheim Wildgrimmi" }, "geometry": { "type": "Point", "coordinates": [ 7.4625127, 46.5529237 ] } },
{ "type": "Feature", "properties": { "osm_id": "5807018053", "code": 2423, "fclass": "alpine_hut", "name": "Stierenberg" }, "geometry": { "type": "Point", "coordinates": [ 7.4396304, 46.5662272 ] } },
{ "type": "Feature", "properties": { "osm_id": "5818255439", "code": 2423, "fclass": "alpine_hut", "name": "Fromatthütte" }, "geometry": { "type": "Point", "coordinates": [ 7.432787, 46.5457263 ] } },
{ "type": "Feature", "properties": { "osm_id": "5834653667", "code": 2423, "fclass": "alpine_hut", "name": "Chamonna Tuoi" }, "geometry": { "type": "Point", "coordinates": [ 10.1324884, 46.8307354 ] } },
{ "type": "Feature", "properties": { "osm_id": "5842143687", "code": 2423, "fclass": "alpine_hut", "name": "Backi" }, "geometry": { "type": "Point", "coordinates": [ 7.444452, 47.2626894 ] } },
{ "type": "Feature", "properties": { "osm_id": "6290847885", "code": 2423, "fclass": "alpine_hut", "name": null }, "geometry": { "type": "Point", "coordinates": [ 9.1449707, 46.7201228 ] } },
{ "type": "Feature", "properties": { "osm_id": "6600298909", "code": 2423, "fclass": "alpine_hut", "name": "hubelhütte" }, "geometry": { "type": "Point", "coordinates": [ 8.2022384, 46.7777636 ] } },
{ "type": "Feature", "properties": { "osm_id": "6617740631", "code": 2423, "fclass": "alpine_hut", "name": "Binntalhütte" }, "geometry": { "type": "Point", "coordinates": [ 8.2918141, 46.3747091 ] } },
{ "type": "Feature", "properties": { "osm_id": "6638839206", "code": 2423, "fclass": "alpine_hut", "name": "Üeschinenhütte" }, "geometry": { "type": "Point", "coordinates": [ 7.6218251, 46.454509 ] } },
{ "type": "Feature", "properties": { "osm_id": "6644670562", "code": 2423, "fclass": "alpine_hut", "name": "Capanna Pairolo" }, "geometry": { "type": "Point", "coordinates": [ 9.044859, 46.0628319 ] } },
{ "type": "Feature", "properties": { "osm_id": "6652940277", "code": 2423, "fclass": "alpine_hut", "name": "Suls-Lobhornhütte" }, "geometry": { "type": "Point", "coordinates": [ 7.8689998, 46.6184883 ] } },
{ "type": "Feature", "properties": { "osm_id": "6681994772", "code": 2423, "fclass": "alpine_hut", "name": "Windgällenhütte" }, "geometry": { "type": "Point", "coordinates": [ 8.7557266, 46.7902015 ] } },
{ "type": "Feature", "properties": { "osm_id": "6682032038", "code": 2423, "fclass": "alpine_hut", "name": "Rotondohütte" }, "geometry": { "type": "Point", "coordinates": [ 8.4843821, 46.544908 ] } },
{ "type": "Feature", "properties": { "osm_id": "6682059365", "code": 2423, "fclass": "alpine_hut", "name": "Leutschachhütte SAC" }, "geometry": { "type": "Point", "coordinates": [ 8.6011709, 46.7836787 ] } },
{ "type": "Feature", "properties": { "osm_id": "6682059366", "code": 2423, "fclass": "alpine_hut", "name": "Sewenhütte SAC" }, "geometry": { "type": "Point", "coordinates": [ 8.5210697, 46.7466293 ] } },
{ "type": "Feature", "properties": { "osm_id": "6682059367", "code": 2423, "fclass": "alpine_hut", "name": "Bergrestaurant Sunniggratli" }, "geometry": { "type": "Point", "coordinates": [ 8.6340028, 46.7834505 ] } },
{ "type": "Feature", "properties": { "osm_id": "6684839287", "code": 2423, "fclass": "alpine_hut", "name": "Wiwannihütte" }, "geometry": { "type": "Point", "coordinates": [ 7.8618253, 46.3447008 ] } },
{ "type": "Feature", "properties": { "osm_id": "6685226045", "code": 2423, "fclass": "alpine_hut", "name": "Furggeli-Hütte" }, "geometry": { "type": "Point", "coordinates": [ 8.6433203, 46.9629627 ] } },
{ "type": "Feature", "properties": { "osm_id": "6685270348", "code": 2423, "fclass": "alpine_hut", "name": "Treschhütte SAC" }, "geometry": { "type": "Point", "coordinates": [ 8.6494662, 46.7185828 ] } },
{ "type": "Feature", "properties": { "osm_id": "6695078457", "code": 2423, "fclass": "alpine_hut", "name": "Alpwirtschaft Roggenloch" }, "geometry": { "type": "Point", "coordinates": [ 8.8542109, 46.982965 ] } },
{ "type": "Feature", "properties": { "osm_id": "6695078459", "code": 2423, "fclass": "alpine_hut", "name": "Geisshittae" }, "geometry": { "type": "Point", "coordinates": [ 8.5667439, 46.8900283 ] } },
{ "type": "Feature", "properties": { "osm_id": "6699176370", "code": 2423, "fclass": "alpine_hut", "name": "Alp Grat" }, "geometry": { "type": "Point", "coordinates": [ 8.585697, 46.8464615 ] } },
{ "type": "Feature", "properties": { "osm_id": "6700803748", "code": 2423, "fclass": "alpine_hut", "name": "Balmhütte" }, "geometry": { "type": "Point", "coordinates": [ 7.8934153, 46.719719 ] } },
{ "type": "Feature", "properties": { "osm_id": "6715709386", "code": 2423, "fclass": "alpine_hut", "name": "Chadschlag" }, "geometry": { "type": "Point", "coordinates": [ 9.635065, 46.9176419 ] } },
{ "type": "Feature", "properties": { "osm_id": "6784747035", "code": 2423, "fclass": "alpine_hut", "name": "Naturfreundehaus Brünig" }, "geometry": { "type": "Point", "coordinates": [ 8.1447442, 46.7596955 ] } },
{ "type": "Feature", "properties": { "osm_id": "6811520910", "code": 2423, "fclass": "alpine_hut", "name": "Cabane d'Orny" }, "geometry": { "type": "Point", "coordinates": [ 7.0628122, 46.0019128 ] } },
{ "type": "Feature", "properties": { "osm_id": "6811522337", "code": 2423, "fclass": "alpine_hut", "name": "Cabane du Trient" }, "geometry": { "type": "Point", "coordinates": [ 7.0436489, 45.9995963 ] } },
{ "type": "Feature", "properties": { "osm_id": "6893389795", "code": 2423, "fclass": "alpine_hut", "name": "Refuge La Vouivre" }, "geometry": { "type": "Point", "coordinates": [ 6.8325822, 46.345086 ] } },
{ "type": "Feature", "properties": { "osm_id": "6913946927", "code": 2423, "fclass": "alpine_hut", "name": "Lui d'Aout" }, "geometry": { "type": "Point", "coordinates": [ 7.1387079, 46.1934499 ] } },
{ "type": "Feature", "properties": { "osm_id": "6919661171", "code": 2423, "fclass": "alpine_hut", "name": "Cabane du Demècre" }, "geometry": { "type": "Point", "coordinates": [ 7.0822415, 46.1740748 ] } },
{ "type": "Feature", "properties": { "osm_id": "6920077295", "code": 2423, "fclass": "alpine_hut", "name": "Cabane de Sorniot" }, "geometry": { "type": "Point", "coordinates": [ 7.0949146, 46.1693151 ] } },
{ "type": "Feature", "properties": { "osm_id": "6920281757", "code": 2423, "fclass": "alpine_hut", "name": "Refuge du Lac" }, "geometry": { "type": "Point", "coordinates": [ 7.2144607, 46.2798371 ] } },
{ "type": "Feature", "properties": { "osm_id": "6920374590", "code": 2423, "fclass": "alpine_hut", "name": "Gîte d'alpage de Dorbon" }, "geometry": { "type": "Point", "coordinates": [ 7.1904664, 46.2591734 ] } },
{ "type": "Feature", "properties": { "osm_id": "7222319700", "code": 2423, "fclass": "alpine_hut", "name": "Cabane Rochefort" }, "geometry": { "type": "Point", "coordinates": [ 6.146234, 46.4657762 ] } },
{ "type": "Feature", "properties": { "osm_id": "7683312029", "code": 2423, "fclass": "alpine_hut", "name": "Alpwirtschaft Rychenbärgli" }, "geometry": { "type": "Point", "coordinates": [ 7.6463982, 46.4812927 ] } },
{ "type": "Feature", "properties": { "osm_id": "7827681685", "code": 2423, "fclass": "alpine_hut", "name": "Nuova Capanna Gesero in località Biscia m.2003" }, "geometry": { "type": "Point", "coordinates": [ 9.13161, 46.1777705 ] } },
{ "type": "Feature", "properties": { "osm_id": "7832853686", "code": 2423, "fclass": "alpine_hut", "name": "Alpe Zanutsch Vordersäss" }, "geometry": { "type": "Point", "coordinates": [ 9.6227537, 46.8974277 ] } },
{ "type": "Feature", "properties": { "osm_id": "7844208985", "code": 2423, "fclass": "alpine_hut", "name": "Auberge et Restaurant du Pont de Nant" }, "geometry": { "type": "Point", "coordinates": [ 7.1105259, 46.25199 ] } },
{ "type": "Feature", "properties": { "osm_id": "7982402149", "code": 2423, "fclass": "alpine_hut", "name": "Wildhornhütte" }, "geometry": { "type": "Point", "coordinates": [ 7.3879994, 46.3792241 ] } },
{ "type": "Feature", "properties": { "osm_id": "8039698155", "code": 2423, "fclass": "alpine_hut", "name": "Rifugio Sonnenberg" }, "geometry": { "type": "Point", "coordinates": [ 8.4475069, 46.3130661 ] } },
{ "type": "Feature", "properties": { "osm_id": "8112307010", "code": 2423, "fclass": "alpine_hut", "name": "Skihaus Stäfeli" }, "geometry": { "type": "Point", "coordinates": [ 9.1860288, 46.9787317 ] } },
{ "type": "Feature", "properties": { "osm_id": "8184641002", "code": 2423, "fclass": "alpine_hut", "name": "Berglialp" }, "geometry": { "type": "Point", "coordinates": [ 9.151492, 46.9529464 ] } },
{ "type": "Feature", "properties": { "osm_id": "8210223277", "code": 2423, "fclass": "alpine_hut", "name": "Cabane du Mountet CAS" }, "geometry": { "type": "Point", "coordinates": [ 7.6535412, 46.0600459 ] } },
{ "type": "Feature", "properties": { "osm_id": "8857192925", "code": 2423, "fclass": "alpine_hut", "name": "Baltschiederklause" }, "geometry": { "type": "Point", "coordinates": [ 7.8897949, 46.3949826 ] } },
{ "type": "Feature", "properties": { "osm_id": "8948855719", "code": 2423, "fclass": "alpine_hut", "name": "Berghaus Unterbärgli" }, "geometry": { "type": "Point", "coordinates": [ 7.7332139, 46.5060679 ] } },
{ "type": "Feature", "properties": { "osm_id": "9070906905", "code": 2423, "fclass": "alpine_hut", "name": "Hörnlihütte" }, "geometry": { "type": "Point", "coordinates": [ 7.6770109, 45.9821974 ] } },
{ "type": "Feature", "properties": { "osm_id": "9101668101", "code": 2423, "fclass": "alpine_hut", "name": "Grathütte" }, "geometry": { "type": "Point", "coordinates": [ 7.6935535, 46.5648008 ] } },
{ "type": "Feature", "properties": { "osm_id": "9362492877", "code": 2423, "fclass": "alpine_hut", "name": "Cabane des Violettes" }, "geometry": { "type": "Point", "coordinates": [ 7.5000486, 46.3423835 ] } },
{ "type": "Feature", "properties": { "osm_id": "9427942453", "code": 2423, "fclass": "alpine_hut", "name": "Rifugio Gaspare Oberto e Paolo Maroli" }, "geometry": { "type": "Point", "coordinates": [ 7.9788314, 45.9965146 ] } },
{ "type": "Feature", "properties": { "osm_id": "9735188163", "code": 2423, "fclass": "alpine_hut", "name": null }, "geometry": { "type": "Point", "coordinates": [ 7.3544975, 46.2798512 ] } },
{ "type": "Feature", "properties": { "osm_id": "10048744013", "code": 2423, "fclass": "alpine_hut", "name": "Lauteraarhütte" }, "geometry": { "type": "Point", "coordinates": [ 8.2221825, 46.5700751 ] } },
{ "type": "Feature", "properties": { "osm_id": "10101322757", "code": 2423, "fclass": "alpine_hut", "name": "Oberaarjochhütte" }, "geometry": { "type": "Point", "coordinates": [ 8.1730617, 46.5260682 ] } },
{ "type": "Feature", "properties": { "osm_id": "10167539308", "code": 2423, "fclass": "alpine_hut", "name": "Schönbielhütte SAC" }, "geometry": { "type": "Point", "coordinates": [ 7.6289566, 46.00198 ] } },
{ "type": "Feature", "properties": { "osm_id": "10167629346", "code": 2423, "fclass": "alpine_hut", "name": "Cabane des Vignettes CAS" }, "geometry": { "type": "Point", "coordinates": [ 7.4757407, 45.9897933 ] } },
{ "type": "Feature", "properties": { "osm_id": "10177900507", "code": 2423, "fclass": "alpine_hut", "name": "Finsteraarhornhütte" }, "geometry": { "type": "Point", "coordinates": [ 8.1144702, 46.5219762 ] } },
{ "type": "Feature", "properties": { "osm_id": "10296767556", "code": 2423, "fclass": "alpine_hut", "name": "SAC Waldweid" }, "geometry": { "type": "Point", "coordinates": [ 7.7208314, 47.3777924 ] } },
{ "type": "Feature", "properties": { "osm_id": "10682547777", "code": 2423, "fclass": "alpine_hut", "name": "Süftenenhütte" }, "geometry": { "type": "Point", "coordinates": [ 7.3964959, 46.7360929 ] } },
{ "type": "Feature", "properties": { "osm_id": "10933874005", "code": 2423, "fclass": "alpine_hut", "name": "Neurüti" }, "geometry": { "type": "Point", "coordinates": [ 8.0309348, 46.7310204 ] } },
{ "type": "Feature", "properties": { "osm_id": "11061456405", "code": 2423, "fclass": "alpine_hut", "name": "Ammertenhütte" }, "geometry": { "type": "Point", "coordinates": [ 7.514801, 46.4258912 ] } },
{ "type": "Feature", "properties": { "osm_id": "11063882922", "code": 2423, "fclass": "alpine_hut", "name": "Monte Rosa Hütte" }, "geometry": { "type": "Point", "coordinates": [ 7.814568, 45.9569267 ] } },
{ "type": "Feature", "properties": { "osm_id": "11136343328", "code": 2423, "fclass": "alpine_hut", "name": "Cabane de Balavaux" }, "geometry": { "type": "Point", "coordinates": [ 7.2779515, 46.1554647 ] } },
{ "type": "Feature", "properties": { "osm_id": "11174401522", "code": 2423, "fclass": "alpine_hut", "name": "Blüemlisalphütte" }, "geometry": { "type": "Point", "coordinates": [ 7.7716385, 46.5101555 ] } },
{ "type": "Feature", "properties": { "osm_id": "11203686940", "code": 2423, "fclass": "alpine_hut", "name": "Cabane de Prarochet" }, "geometry": { "type": "Point", "coordinates": [ 7.247452, 46.3144255 ] } },
{ "type": "Feature", "properties": { "osm_id": "11215332056", "code": 2423, "fclass": "alpine_hut", "name": "Cabane Becs de Bosson" }, "geometry": { "type": "Point", "coordinates": [ 7.5163251, 46.1641939 ] } },
{ "type": "Feature", "properties": { "osm_id": "11242272119", "code": 2423, "fclass": "alpine_hut", "name": "Hollandiahütte" }, "geometry": { "type": "Point", "coordinates": [ 7.9601696, 46.4752668 ] } },
{ "type": "Feature", "properties": { "osm_id": "11262553552", "code": 2423, "fclass": "alpine_hut", "name": "Oberaletschhütte" }, "geometry": { "type": "Point", "coordinates": [ 7.9738084, 46.4249383 ] } },
{ "type": "Feature", "properties": { "osm_id": "11331670994", "code": 2423, "fclass": "alpine_hut", "name": "Cabane des Audannes" }, "geometry": { "type": "Point", "coordinates": [ 7.3840844, 46.3434549 ] } },
{ "type": "Feature", "properties": { "osm_id": "11773953799", "code": 2423, "fclass": "alpine_hut", "name": "Cabane de l'Illhorn" }, "geometry": { "type": "Point", "coordinates": [ 7.5970553, 46.2560824 ] } },
{ "type": "Feature", "properties": { "osm_id": "11862748732", "code": 2423, "fclass": "alpine_hut", "name": "Cabane La Luy" }, "geometry": { "type": "Point", "coordinates": [ 7.1737052, 46.1264797 ] } },
{ "type": "Feature", "properties": { "osm_id": "12122562219", "code": 2423, "fclass": "alpine_hut", "name": "Vaccarisco" }, "geometry": { "type": "Point", "coordinates": [ 8.6725775, 46.4367759 ] } },
{ "type": "Feature", "properties": { "osm_id": "12151423165", "code": 2423, "fclass": "alpine_hut", "name": "Cabane des Portes" }, "geometry": { "type": "Point", "coordinates": [ 6.9937746, 46.5894316 ] } },
{ "type": "Feature", "properties": { "osm_id": "12167403973", "code": 2423, "fclass": "alpine_hut", "name": "Iffigenalp" }, "geometry": { "type": "Point", "coordinates": [ 7.441151, 46.3994548 ] } },
{ "type": "Feature", "properties": { "osm_id": "12181779286", "code": 2423, "fclass": "alpine_hut", "name": "Auf den Spuren des Alpzigers" }, "geometry": { "type": "Point", "coordinates": [ 8.9890635, 47.0680914 ] } },
{ "type": "Feature", "properties": { "osm_id": "12181796497", "code": 2423, "fclass": "alpine_hut", "name": "Panorama-Jurte" }, "geometry": { "type": "Point", "coordinates": [ 8.9930387, 46.9506174 ] } },
{ "type": "Feature", "properties": { "osm_id": "12192527648", "code": 2423, "fclass": "alpine_hut", "name": "Berghaus Pragelblick" }, "geometry": { "type": "Point", "coordinates": [ 8.8423416, 46.9905976 ] } },
{ "type": "Feature", "properties": { "osm_id": "12201037514", "code": 2423, "fclass": "alpine_hut", "name": "Capanna Cremorasco" }, "geometry": { "type": "Point", "coordinates": [ 9.0124957, 46.1485847 ] } },
{ "type": "Feature", "properties": { "osm_id": "12201062723", "code": 2423, "fclass": "alpine_hut", "name": null }, "geometry": { "type": "Point", "coordinates": [ 8.9845652, 46.2298607 ] } },
{ "type": "Feature", "properties": { "osm_id": "12235051399", "code": 2423, "fclass": "alpine_hut", "name": "Alp Oberblegi" }, "geometry": { "type": "Point", "coordinates": [ 9.0166839, 46.9835002 ] } },
{ "type": "Feature", "properties": { "osm_id": "12235079129", "code": 2423, "fclass": "alpine_hut", "name": "Alp Fitteren" }, "geometry": { "type": "Point", "coordinates": [ 9.1843883, 46.9788528 ] } },
{ "type": "Feature", "properties": { "osm_id": "12235080339", "code": 2423, "fclass": "alpine_hut", "name": "Alp Fessis Oberstafel" }, "geometry": { "type": "Point", "coordinates": [ 9.1220479, 47.0163743 ] } },
{ "type": "Feature", "properties": { "osm_id": "12235147444", "code": 2423, "fclass": "alpine_hut", "name": "Alp Ramin" }, "geometry": { "type": "Point", "coordinates": [ 9.2268581, 46.9387773 ] } },
{ "type": "Feature", "properties": { "osm_id": "12235149562", "code": 2423, "fclass": "alpine_hut", "name": "Alp Krauchtal" }, "geometry": { "type": "Point", "coordinates": [ 9.2256512, 46.9848474 ] } },
{ "type": "Feature", "properties": { "osm_id": "12235153002", "code": 2423, "fclass": "alpine_hut", "name": "Alp Talalp-Spanegg" }, "geometry": { "type": "Point", "coordinates": [ 9.1353279, 47.1014414 ] } },
{ "type": "Feature", "properties": { "osm_id": "12235155035", "code": 2423, "fclass": "alpine_hut", "name": "Alp Bösbächi" }, "geometry": { "type": "Point", "coordinates": [ 9.0036139, 46.9705738 ] } },
{ "type": "Feature", "properties": { "osm_id": "12235156932", "code": 2423, "fclass": "alpine_hut", "name": "Alp Guppen" }, "geometry": { "type": "Point", "coordinates": [ 9.0394443, 46.9982369 ] } },
{ "type": "Feature", "properties": { "osm_id": "12235167628", "code": 2423, "fclass": "alpine_hut", "name": "Alp Ämpächli Oberstafel" }, "geometry": { "type": "Point", "coordinates": [ 9.1429953, 46.9224708 ] } },
{ "type": "Feature", "properties": { "osm_id": "12235170827", "code": 2423, "fclass": "alpine_hut", "name": "Alp Hinterschlatt" }, "geometry": { "type": "Point", "coordinates": [ 8.929455, 47.0066241 ] } },
{ "type": "Feature", "properties": { "osm_id": "12235178246", "code": 2423, "fclass": "alpine_hut", "name": "Alp Mühlebach Oberstafel" }, "geometry": { "type": "Point", "coordinates": [ 9.2045015, 47.0284734 ] } },
{ "type": "Feature", "properties": { "osm_id": "12237242497", "code": 2423, "fclass": "alpine_hut", "name": "Mürtschenalp Oberstafel" }, "geometry": { "type": "Point", "coordinates": [ 9.1436979, 47.05768 ] } },
{ "type": "Feature", "properties": { "osm_id": "12810064899", "code": 2423, "fclass": "alpine_hut", "name": "capanna Sementina" }, "geometry": { "type": "Point", "coordinates": [ 8.9508373, 46.1961567 ] } },
{ "type": "Feature", "properties": { "osm_id": "12966403492", "code": 2423, "fclass": "alpine_hut", "name": "Alp Tschingelfeld" }, "geometry": { "type": "Point", "coordinates": [ 8.0410262, 46.6841117 ] } },
{ "type": "Feature", "properties": { "osm_id": "13127380901", "code": 2423, "fclass": "alpine_hut", "name": "Skihütte Brend" }, "geometry": { "type": "Point", "coordinates": [ 8.1508886, 46.8619143 ] } },
{ "type": "Feature", "properties": { "osm_id": "13135143793", "code": 2423, "fclass": "alpine_hut", "name": "Almagellerhütte" }, "geometry": { "type": "Point", "coordinates": [ 8.0076731, 46.1076059 ] } },
{ "type": "Feature", "properties": { "osm_id": "13135956569", "code": 2423, "fclass": "alpine_hut", "name": "Berghütte Hohsaas" }, "geometry": { "type": "Point", "coordinates": [ 7.9917696, 46.1392281 ] } },
{ "type": "Feature", "properties": { "osm_id": "13135956571", "code": 2423, "fclass": "alpine_hut", "name": "Weissmieshütte SAC" }, "geometry": { "type": "Point", "coordinates": [ 7.9778782, 46.1437625 ] } },
{ "type": "Feature", "properties": { "osm_id": "13173654673", "code": 2423, "fclass": "alpine_hut", "name": "Capanna Meden" }, "geometry": { "type": "Point", "coordinates": [ 10.0592205, 46.2230474 ] } },
{ "type": "Feature", "properties": { "osm_id": "13234284428", "code": 2423, "fclass": "alpine_hut", "name": "Rifugio Alpe Spluga" }, "geometry": { "type": "Point", "coordinates": [ 8.6791939, 46.3153022 ] } },
{ "type": "Feature", "properties": { "osm_id": "13349029701", "code": 2423, "fclass": "alpine_hut", "name": "Alpgschwänd" }, "geometry": { "type": "Point", "coordinates": [ 8.2685404, 46.9857215 ] } },
{ "type": "Feature", "properties": { "osm_id": "13466581093", "code": 2423, "fclass": "alpine_hut", "name": "Quattro Bar Corviglia" }, "geometry": { "type": "Point", "coordinates": [ 9.8192872, 46.5082569 ] } },
{ "type": "Feature", "properties": { "osm_id": "13466581094", "code": 2423, "fclass": "alpine_hut", "name": "Alpina Hütte" }, "geometry": { "type": "Point", "coordinates": [ 9.8142213, 46.508526 ] } },
{ "type": "Feature", "properties": { "osm_id": "13466581095", "code": 2423, "fclass": "alpine_hut", "name": "Alp Languard" }, "geometry": { "type": "Point", "coordinates": [ 9.9217302, 46.4877156 ] } },
{ "type": "Feature", "properties": { "osm_id": "13466581096", "code": 2423, "fclass": "alpine_hut", "name": "Unterer Schafberg" }, "geometry": { "type": "Point", "coordinates": [ 9.9067554, 46.5004129 ] } },
{ "type": "Feature", "properties": { "osm_id": "13466581097", "code": 2423, "fclass": "alpine_hut", "name": "Morteratsch" }, "geometry": { "type": "Point", "coordinates": [ 9.9408297, 46.4509478 ] } },
{ "type": "Feature", "properties": { "osm_id": "13466581098", "code": 2423, "fclass": "alpine_hut", "name": "Alp Grüm" }, "geometry": { "type": "Point", "coordinates": [ 10.0312305, 46.3744933 ] } },
{ "type": "Feature", "properties": { "osm_id": "13466581099", "code": 2423, "fclass": "alpine_hut", "name": "Agroturismo Palü" }, "geometry": { "type": "Point", "coordinates": [ 10.0277714, 46.372991 ] } },
{ "type": "Feature", "properties": { "osm_id": "13551172822", "code": 2423, "fclass": "alpine_hut", "name": "Capanna Miralago" }, "geometry": { "type": "Point", "coordinates": [ 9.2247416, 46.2581227 ] } },
{ "type": "Feature", "properties": { "osm_id": "13666605401", "code": 2423, "fclass": "alpine_hut", "name": null }, "geometry": { "type": "Point", "coordinates": [ 10.2286681, 46.817727 ] } },
{ "type": "Feature", "properties": { "osm_id": "13703707246", "code": 2423, "fclass": "alpine_hut", "name": "Capanna Pian d'Alpe" }, "geometry": { "type": "Point", "coordinates": [ 8.9385036, 46.3946214 ] } },
{ "type": "Feature", "properties": { "osm_id": "13729864528", "code": 2423, "fclass": "alpine_hut", "name": "Grünsee Mountain Lodge" }, "geometry": { "type": "Point", "coordinates": [ 7.7796972, 46.0059923 ] } },
{ "type": "Feature", "properties": { "osm_id": "13807052082", "code": 2423, "fclass": "alpine_hut", "name": "Atzmännig Lodge" }, "geometry": { "type": "Point", "coordinates": [ 8.9962741, 47.2847166 ] } },
{ "type": "Feature", "properties": { "osm_id": "13907162751", "code": 2423, "fclass": "alpine_hut", "name": "Berggasthaus Dürrboden" }, "geometry": { "type": "Point", "coordinates": [ 9.9218158, 46.7208753 ] } },
{ "type": "Feature", "properties": { "osm_id": "13917632701", "code": 2423, "fclass": "alpine_hut", "name": "Berghütte Hohsaas" }, "geometry": { "type": "Point", "coordinates": [ 7.9918093, 46.1392153 ] } },
{ "type": "Feature", "properties": { "osm_id": "14015076801", "code": 2423, "fclass": "alpine_hut", "name": "Capanna Regina Margherita" }, "geometry": { "type": "Point", "coordinates": [ 7.8770731, 45.9270556 ] } }
]
}
