{
"type": "FeatureCollection",
"name": "gis_osm_points_of_interest",
"crs": { "type": "name", "properties": { "name": "urn:ogc:def:crs:OGC:1.3:CRS84" } },
"features": [
{ "type": "Feature", "properties": { "osm_id": "1014954", "code": 2203, "fclass": "cinema", "name": "Ciné Rex" }, "geometry": { "type": "Point", "coordinates": [ 7.5628558, 46.4928487 ] } },
{ "type": "Feature", "properties": { "osm_id": "29455086", "code": 2203, "fclass": "cinema", "name": "Kiwi" }, "geometry": { "type": "Point", "coordinates": [ 8.7261242, 47.4987786 ] } },
{ "type": "Feature", "properties": { "osm_id": "213230419", "code": 2203, "fclass": "cinema", "name": "Cine Rex" }, "geometry": { "type": "Point", "coordinates": [ 7.8559108, 46.6843354 ] } },
{ "type": "Feature", "properties": { "osm_id": "245455175", "code": 2203, "fclass": "cinema", "name": "Kino Sterk" }, "geometry": { "type": "Point", "coordinates": [ 8.3075346, 47.4748718 ] } },
{ "type": "Feature", "properties": { "osm_id": "247696793", "code": 2203, "fclass": "cinema", "name": "Schwanen" }, "geometry": { "type": "Point", "coordinates": [ 8.858442, 47.6573735 ] } },
{ "type": "Feature", "properties": { "osm_id": "251331441", "code": 2203, "fclass": "cinema", "name": "Cinewil" }, "geometry": { "type": "Point", "coordinates": [ 9.0419681, 47.4633788 ] } },
{ "type": "Feature", "properties": { "osm_id": "251364455", "code": 2203, "fclass": "cinema", "name": "Liberty Cinema" }, "geometry": { "type": "Point", "coordinates": [ 9.1252918, 47.562569 ] } },
{ "type": "Feature", "properties": { "osm_id": "253266818", "code": 2203, "fclass": "cinema", "name": "Cinétoile - Malley Lumières" }, "geometry": { "type": "Point", "coordinates": [ 6.6025623, 46.5272555 ] } },
{ "type": "Feature", "properties": { "osm_id": "253266825", "code": 2203, "fclass": "cinema", "name": "Odéon" }, "geometry": { "type": "Point", "coordinates": [ 6.4958654, 46.5077991 ] } },
{ "type": "Feature", "properties": { "osm_id": "253303640", "code": 2203, "fclass": "cinema", "name": "Cinémathèque suisse" }, "geometry": { "type": "Point", "coordinates": [ 6.6252882, 46.5204083 ] } },
{ "type": "Feature", "properties": { "osm_id": "264793388", "code": 2203, "fclass": "cinema", "name": "Pathe" }, "geometry": { "type": "Point", "coordinates": [ 8.6224865, 47.4140341 ] } },
{ "type": "Feature", "properties": { "osm_id": "268134975", "code": 2203, "fclass": "cinema", "name": "Schlosskino" }, "geometry": { "type": "Point", "coordinates": [ 8.8163715, 47.2257077 ] } },
{ "type": "Feature", "properties": { "osm_id": "269423291", "code": 2203, "fclass": "cinema", "name": "Qtopia" }, "geometry": { "type": "Point", "coordinates": [ 8.7177725, 47.3464285 ] } },
{ "type": "Feature", "properties": { "osm_id": "271182475", "code": 2203, "fclass": "cinema", "name": "ABC" }, "geometry": { "type": "Point", "coordinates": [ 6.8297655, 47.1055786 ] } },
{ "type": "Feature", "properties": { "osm_id": "273141751", "code": 2203, "fclass": "cinema", "name": "Cinetreff" }, "geometry": { "type": "Point", "coordinates": [ 9.2799576, 47.3861213 ] } },
{ "type": "Feature", "properties": { "osm_id": "282774238", "code": 2203, "fclass": "cinema", "name": "cineMovie 1" }, "geometry": { "type": "Point", "coordinates": [ 7.4354296, 46.9469716 ] } },
{ "type": "Feature", "properties": { "osm_id": "282774239", "code": 2203, "fclass": "cinema", "name": "cineCamera" }, "geometry": { "type": "Point", "coordinates": [ 7.4350127, 46.946343 ] } },
{ "type": "Feature", "properties": { "osm_id": "282774265", "code": 2203, "fclass": "cinema", "name": "Cinématte" }, "geometry": { "type": "Point", "coordinates": [ 7.4572711, 46.9467086 ] } },
{ "type": "Feature", "properties": { "osm_id": "283192423", "code": 2203, "fclass": "cinema", "name": "Casino" }, "geometry": { "type": "Point", "coordinates": [ 6.5166993, 46.6589726 ] } },
{ "type": "Feature", "properties": { "osm_id": "286363835", "code": 2203, "fclass": "cinema", "name": "Ciné Voltaire" }, "geometry": { "type": "Point", "coordinates": [ 6.1193849, 46.2533154 ] } },
{ "type": "Feature", "properties": { "osm_id": "286573024", "code": 2203, "fclass": "cinema", "name": "Kinotheater Brienz" }, "geometry": { "type": "Point", "coordinates": [ 8.0361624, 46.7538495 ] } },
{ "type": "Feature", "properties": { "osm_id": "287034838", "code": 2203, "fclass": "cinema", "name": "Pathé Balexert" }, "geometry": { "type": "Point", "coordinates": [ 6.1137422, 46.218446 ] } },
{ "type": "Feature", "properties": { "osm_id": "297991870", "code": 2203, "fclass": "cinema", "name": "Schloss Kino" }, "geometry": { "type": "Point", "coordinates": [ 8.675732, 47.2261412 ] } },
{ "type": "Feature", "properties": { "osm_id": "299411813", "code": 2203, "fclass": "cinema", "name": "Palace" }, "geometry": { "type": "Point", "coordinates": [ 7.9118507, 47.3489232 ] } },
{ "type": "Feature", "properties": { "osm_id": "299411840", "code": 2203, "fclass": "cinema", "name": "Kino Koni" }, "geometry": { "type": "Point", "coordinates": [ 7.9105577, 47.3487861 ] } },
{ "type": "Feature", "properties": { "osm_id": "299412030", "code": 2203, "fclass": "cinema", "name": "Lichtspiele" }, "geometry": { "type": "Point", "coordinates": [ 7.9034386, 47.3504333 ] } },
{ "type": "Feature", "properties": { "osm_id": "299412088", "code": 2203, "fclass": "cinema", "name": "Capitol" }, "geometry": { "type": "Point", "coordinates": [ 7.9015339, 47.3518487 ] } },
{ "type": "Feature", "properties": { "osm_id": "308076092", "code": 2203, "fclass": "cinema", "name": "Pathé Westside" }, "geometry": { "type": "Point", "coordinates": [ 7.3720683, 46.9438865 ] } },
{ "type": "Feature", "properties": { "osm_id": "308076879", "code": 2203, "fclass": "cinema", "name": "Kino Hirschen" }, "geometry": { "type": "Point", "coordinates": [ 7.2397547, 46.903234 ] } },
{ "type": "Feature", "properties": { "osm_id": "310097392", "code": 2203, "fclass": "cinema", "name": "Trafo Kino" }, "geometry": { "type": "Point", "coordinates": [ 8.3056006, 47.4785544 ] } },
{ "type": "Feature", "properties": { "osm_id": "311643066", "code": 2203, "fclass": "cinema", "name": "Capitol" }, "geometry": { "type": "Point", "coordinates": [ 7.9458465, 47.2862892 ] } },
{ "type": "Feature", "properties": { "osm_id": "312520904", "code": 2203, "fclass": "cinema", "name": "cineBubenberg" }, "geometry": { "type": "Point", "coordinates": [ 7.4368668, 46.9474306 ] } },
{ "type": "Feature", "properties": { "osm_id": "317473321", "code": 2203, "fclass": "cinema", "name": "Cinéma de Verbier" }, "geometry": { "type": "Point", "coordinates": [ 7.2294318, 46.0955988 ] } },
{ "type": "Feature", "properties": { "osm_id": "327328620", "code": 2203, "fclass": "cinema", "name": "Cinéma d'Echallens" }, "geometry": { "type": "Point", "coordinates": [ 6.6349202, 46.6405773 ] } },
{ "type": "Feature", "properties": { "osm_id": "330936823", "code": 2203, "fclass": "cinema", "name": "Kino Palace" }, "geometry": { "type": "Point", "coordinates": [ 8.7973823, 47.3219783 ] } },
{ "type": "Feature", "properties": { "osm_id": "354838256", "code": 2203, "fclass": "cinema", "name": "Palace" }, "geometry": { "type": "Point", "coordinates": [ 7.810396, 47.4627741 ] } },
{ "type": "Feature", "properties": { "osm_id": "357141606", "code": 2203, "fclass": "cinema", "name": "Canva" }, "geometry": { "type": "Point", "coordinates": [ 7.5476716, 47.2052854 ] } },
{ "type": "Feature", "properties": { "osm_id": "364178565", "code": 2203, "fclass": "cinema", "name": "Neues Kino" }, "geometry": { "type": "Point", "coordinates": [ 8.5834002, 47.5293624 ] } },
{ "type": "Feature", "properties": { "osm_id": "366033070", "code": 2203, "fclass": "cinema", "name": "Movieworld" }, "geometry": { "type": "Point", "coordinates": [ 7.6821812, 46.6855476 ] } },
{ "type": "Feature", "properties": { "osm_id": "366576736", "code": 2203, "fclass": "cinema", "name": "Plaza" }, "geometry": { "type": "Point", "coordinates": [ 6.8232796, 47.0998172 ] } },
{ "type": "Feature", "properties": { "osm_id": "368207558", "code": 2203, "fclass": "cinema", "name": "Cinema Corso" }, "geometry": { "type": "Point", "coordinates": [ 8.9538017, 46.0059896 ] } },
{ "type": "Feature", "properties": { "osm_id": "368354953", "code": 2203, "fclass": "cinema", "name": "Rex" }, "geometry": { "type": "Point", "coordinates": [ 6.9329501, 46.9925409 ] } },
{ "type": "Feature", "properties": { "osm_id": "368354954", "code": 2203, "fclass": "cinema", "name": "Apollo 123" }, "geometry": { "type": "Point", "coordinates": [ 6.9343981, 46.9927933 ] } },
{ "type": "Feature", "properties": { "osm_id": "370383056", "code": 2203, "fclass": "cinema", "name": "Rex 4" }, "geometry": { "type": "Point", "coordinates": [ 6.8412193, 46.4609169 ] } },
{ "type": "Feature", "properties": { "osm_id": "370383061", "code": 2203, "fclass": "cinema", "name": "Rex 1-2-3" }, "geometry": { "type": "Point", "coordinates": [ 6.8410992, 46.461226 ] } },
{ "type": "Feature", "properties": { "osm_id": "372463170", "code": 2203, "fclass": "cinema", "name": "Kino City" }, "geometry": { "type": "Point", "coordinates": [ 9.1329937, 47.4374301 ] } },
{ "type": "Feature", "properties": { "osm_id": "373865639", "code": 2203, "fclass": "cinema", "name": "Scala" }, "geometry": { "type": "Point", "coordinates": [ 9.3762705, 47.4265304 ] } },
{ "type": "Feature", "properties": { "osm_id": "412547890", "code": 2203, "fclass": "cinema", "name": "InsKino" }, "geometry": { "type": "Point", "coordinates": [ 7.1036776, 47.0075773 ] } },
{ "type": "Feature", "properties": { "osm_id": "413370656", "code": 2203, "fclass": "cinema", "name": "Astoria" }, "geometry": { "type": "Point", "coordinates": [ 7.8842139, 46.2913244 ] } },
{ "type": "Feature", "properties": { "osm_id": "422637850", "code": 2203, "fclass": "cinema", "name": "Grain d'Sel" }, "geometry": { "type": "Point", "coordinates": [ 7.0119894, 46.2517907 ] } },
{ "type": "Feature", "properties": { "osm_id": "423833240", "code": 2203, "fclass": "cinema", "name": "Studio" }, "geometry": { "type": "Point", "coordinates": [ 6.9329617, 46.9920613 ] } },
{ "type": "Feature", "properties": { "osm_id": "428246731", "code": 2203, "fclass": "cinema", "name": "Capitole" }, "geometry": { "type": "Point", "coordinates": [ 6.2383487, 46.3831802 ] } },
{ "type": "Feature", "properties": { "osm_id": "428476754", "code": 2203, "fclass": "cinema", "name": "neues kino Basel" }, "geometry": { "type": "Point", "coordinates": [ 7.5881025, 47.5759038 ] } },
{ "type": "Feature", "properties": { "osm_id": "429232015", "code": 2203, "fclass": "cinema", "name": "Kino in der Reitschule" }, "geometry": { "type": "Point", "coordinates": [ 7.4404262, 46.9532394 ] } },
{ "type": "Feature", "properties": { "osm_id": "442586095", "code": 2203, "fclass": "cinema", "name": "Arcades" }, "geometry": { "type": "Point", "coordinates": [ 6.9317084, 46.9922755 ] } },
{ "type": "Feature", "properties": { "osm_id": "442702211", "code": 2203, "fclass": "cinema", "name": "Maxx" }, "geometry": { "type": "Point", "coordinates": [ 8.2803073, 47.0689741 ] } },
{ "type": "Feature", "properties": { "osm_id": "444434140", "code": 2203, "fclass": "cinema", "name": "REX" }, "geometry": { "type": "Point", "coordinates": [ 7.4392788, 46.9466136 ] } },
{ "type": "Feature", "properties": { "osm_id": "476554694", "code": 2203, "fclass": "cinema", "name": "Kino Kulturplatz Davos" }, "geometry": { "type": "Point", "coordinates": [ 9.8223793, 46.7963835 ] } },
{ "type": "Feature", "properties": { "osm_id": "478665196", "code": 2203, "fclass": "cinema", "name": "Astor" }, "geometry": { "type": "Point", "coordinates": [ 6.8424739, 46.4615451 ] } },
{ "type": "Feature", "properties": { "osm_id": "479258514", "code": 2203, "fclass": "cinema", "name": "Rex" }, "geometry": { "type": "Point", "coordinates": [ 7.623426, 47.0591306 ] } },
{ "type": "Feature", "properties": { "osm_id": "479258537", "code": 2203, "fclass": "cinema", "name": "Krone" }, "geometry": { "type": "Point", "coordinates": [ 7.6275006, 47.0561928 ] } },
{ "type": "Feature", "properties": { "osm_id": "495167079", "code": 2203, "fclass": "cinema", "name": "Urba" }, "geometry": { "type": "Point", "coordinates": [ 6.5311846, 46.7248776 ] } },
{ "type": "Feature", "properties": { "osm_id": "506053166", "code": 2203, "fclass": "cinema", "name": "Quader Kino" }, "geometry": { "type": "Point", "coordinates": [ 9.5338076, 46.8520305 ] } },
{ "type": "Feature", "properties": { "osm_id": "506878643", "code": 2203, "fclass": "cinema", "name": "Capitol" }, "geometry": { "type": "Point", "coordinates": [ 8.3099514, 47.0459605 ] } },
{ "type": "Feature", "properties": { "osm_id": "507255189", "code": 2203, "fclass": "cinema", "name": "Open Air Kino" }, "geometry": { "type": "Point", "coordinates": [ 8.3239002, 47.0432767 ] } },
{ "type": "Feature", "properties": { "osm_id": "514584989", "code": 2203, "fclass": "cinema", "name": "cineABC" }, "geometry": { "type": "Point", "coordinates": [ 7.4529404, 46.9569654 ] } },
{ "type": "Feature", "properties": { "osm_id": "528121900", "code": 2203, "fclass": "cinema", "name": "cinebar" }, "geometry": { "type": "Point", "coordinates": [ 7.9939486, 47.1202035 ] } },
{ "type": "Feature", "properties": { "osm_id": "539757399", "code": 2203, "fclass": "cinema", "name": "Casino" }, "geometry": { "type": "Point", "coordinates": [ 7.0753511, 46.1033116 ] } },
{ "type": "Feature", "properties": { "osm_id": "558737508", "code": 2203, "fclass": "cinema", "name": "Grünegg" }, "geometry": { "type": "Point", "coordinates": [ 7.6222485, 46.8820538 ] } },
{ "type": "Feature", "properties": { "osm_id": "562623387", "code": 2203, "fclass": "cinema", "name": "Bourbaki" }, "geometry": { "type": "Point", "coordinates": [ 8.3112805, 47.0569309 ] } },
{ "type": "Feature", "properties": { "osm_id": "568000459", "code": 2203, "fclass": "cinema", "name": "Loge" }, "geometry": { "type": "Point", "coordinates": [ 8.7314998, 47.4985943 ] } },
{ "type": "Feature", "properties": { "osm_id": "571474222", "code": 2203, "fclass": "cinema", "name": "Bio" }, "geometry": { "type": "Point", "coordinates": [ 6.9350376, 46.9931699 ] } },
{ "type": "Feature", "properties": { "osm_id": "582822238", "code": 2203, "fclass": "cinema", "name": "Cinéma Bio" }, "geometry": { "type": "Point", "coordinates": [ 6.1414465, 46.1844753 ] } },
{ "type": "Feature", "properties": { "osm_id": "598706344", "code": 2203, "fclass": "cinema", "name": "La Grange" }, "geometry": { "type": "Point", "coordinates": [ 7.3423728, 47.3650228 ] } },
{ "type": "Feature", "properties": { "osm_id": "599221086", "code": 2203, "fclass": "cinema", "name": "Cosmopolis" }, "geometry": { "type": "Point", "coordinates": [ 6.9631181, 46.3160921 ] } },
{ "type": "Feature", "properties": { "osm_id": "600072321", "code": 2203, "fclass": "cinema", "name": "Madlen" }, "geometry": { "type": "Point", "coordinates": [ 9.6301885, 47.4132452 ] } },
{ "type": "Feature", "properties": { "osm_id": "612800466", "code": 2203, "fclass": "cinema", "name": "Lux" }, "geometry": { "type": "Point", "coordinates": [ 7.3611214, 46.2308149 ] } },
{ "type": "Feature", "properties": { "osm_id": "612800467", "code": 2203, "fclass": "cinema", "name": "Cèdres" }, "geometry": { "type": "Point", "coordinates": [ 7.360835, 46.2305033 ] } },
{ "type": "Feature", "properties": { "osm_id": "616206758", "code": 2203, "fclass": "cinema", "name": "Kino Seehof" }, "geometry": { "type": "Point", "coordinates": [ 8.5150927, 47.1691718 ] } },
{ "type": "Feature", "properties": { "osm_id": "662020252", "code": 2203, "fclass": "cinema", "name": "Kino Gotthard" }, "geometry": { "type": "Point", "coordinates": [ 8.5151762, 47.1723325 ] } },
{ "type": "Feature", "properties": { "osm_id": "672873622", "code": 2203, "fclass": "cinema", "name": "Arena Filmcity" }, "geometry": { "type": "Point", "coordinates": [ 8.5225671, 47.3584763 ] } },
{ "type": "Feature", "properties": { "osm_id": "684592996", "code": 2203, "fclass": "cinema", "name": "Casablanca" }, "geometry": { "type": "Point", "coordinates": [ 7.5289007, 47.2016338 ] } },
{ "type": "Feature", "properties": { "osm_id": "689035911", "code": 2203, "fclass": "cinema", "name": "Rialto il Cinema" }, "geometry": { "type": "Point", "coordinates": [ 8.8018956, 46.1737666 ] } },
{ "type": "Feature", "properties": { "osm_id": "703567260", "code": 2203, "fclass": "cinema", "name": "Rex 1&2" }, "geometry": { "type": "Point", "coordinates": [ 7.2449354, 47.135983 ] } },
{ "type": "Feature", "properties": { "osm_id": "703567377", "code": 2203, "fclass": "cinema", "name": "Apollo" }, "geometry": { "type": "Point", "coordinates": [ 7.247352, 47.1367203 ] } },
{ "type": "Feature", "properties": { "osm_id": "703567556", "code": 2203, "fclass": "cinema", "name": "Lido 1&2" }, "geometry": { "type": "Point", "coordinates": [ 7.2454009, 47.1379348 ] } },
{ "type": "Feature", "properties": { "osm_id": "738015141", "code": 2203, "fclass": "cinema", "name": "Cinema Leventina" }, "geometry": { "type": "Point", "coordinates": [ 8.6117545, 46.5284809 ] } },
{ "type": "Feature", "properties": { "osm_id": "806388116", "code": 2203, "fclass": "cinema", "name": "Otello" }, "geometry": { "type": "Point", "coordinates": [ 8.7701417, 46.1560957 ] } },
{ "type": "Feature", "properties": { "osm_id": "812018180", "code": 2203, "fclass": "cinema", "name": "Plaza" }, "geometry": { "type": "Point", "coordinates": [ 6.9475342, 46.2514535 ] } },
{ "type": "Feature", "properties": { "osm_id": "854338597", "code": 2203, "fclass": "cinema", "name": "Freier Film" }, "geometry": { "type": "Point", "coordinates": [ 8.0511176, 47.3945119 ] } },
{ "type": "Feature", "properties": { "osm_id": "911773743", "code": 2203, "fclass": "cinema", "name": "Maxx" }, "geometry": { "type": "Point", "coordinates": [ 8.7211099, 47.4983781 ] } },
{ "type": "Feature", "properties": { "osm_id": "912524709", "code": 2203, "fclass": "cinema", "name": "Zinéma" }, "geometry": { "type": "Point", "coordinates": [ 6.6273157, 46.5240745 ] } },
{ "type": "Feature", "properties": { "osm_id": "943126505", "code": 2203, "fclass": "cinema", "name": "Le City" }, "geometry": { "type": "Point", "coordinates": [ 6.1567045, 46.2022469 ] } },
{ "type": "Feature", "properties": { "osm_id": "958784979", "code": 2203, "fclass": "cinema", "name": "Youcinema Oftringen" }, "geometry": { "type": "Point", "coordinates": [ 7.9347453, 47.3112019 ] } },
{ "type": "Feature", "properties": { "osm_id": "959680094", "code": 2203, "fclass": "cinema", "name": "KinoK" }, "geometry": { "type": "Point", "coordinates": [ 9.3658039, 47.4217786 ] } },
{ "type": "Feature", "properties": { "osm_id": "1027880740", "code": 2203, "fclass": "cinema", "name": "Kupferschmiede Langnau" }, "geometry": { "type": "Point", "coordinates": [ 7.7872447, 46.9368309 ] } },
{ "type": "Feature", "properties": { "osm_id": "1028104098", "code": 2203, "fclass": "cinema", "name": "Corso" }, "geometry": { "type": "Point", "coordinates": [ 8.5467443, 47.3663927 ] } },
{ "type": "Feature", "properties": { "osm_id": "1028113949", "code": 2203, "fclass": "cinema", "name": "Capitol" }, "geometry": { "type": "Point", "coordinates": [ 8.5441127, 47.3778748 ] } },
{ "type": "Feature", "properties": { "osm_id": "1059571390", "code": 2203, "fclass": "cinema", "name": "Kellerkino" }, "geometry": { "type": "Point", "coordinates": [ 7.450889, 46.9481882 ] } },
{ "type": "Feature", "properties": { "osm_id": "1069585287", "code": 2203, "fclass": "cinema", "name": "Filmpodium" }, "geometry": { "type": "Point", "coordinates": [ 8.5368589, 47.371491 ] } },
{ "type": "Feature", "properties": { "osm_id": "1069585307", "code": 2203, "fclass": "cinema", "name": "Xenix" }, "geometry": { "type": "Point", "coordinates": [ 8.5261232, 47.3752543 ] } },
{ "type": "Feature", "properties": { "osm_id": "1069585330", "code": 2203, "fclass": "cinema", "name": "Arthouse Movie" }, "geometry": { "type": "Point", "coordinates": [ 8.5436256, 47.3707355 ] } },
{ "type": "Feature", "properties": { "osm_id": "1069585345", "code": 2203, "fclass": "cinema", "name": "Metropol" }, "geometry": { "type": "Point", "coordinates": [ 8.5307154, 47.3737562 ] } },
{ "type": "Feature", "properties": { "osm_id": "1069585357", "code": 2203, "fclass": "cinema", "name": "Riffraff 3 + 4" }, "geometry": { "type": "Point", "coordinates": [ 8.5289861, 47.3828111 ] } },
{ "type": "Feature", "properties": { "osm_id": "1069585382", "code": 2203, "fclass": "cinema", "name": "Arthouse Piccadilly 1" }, "geometry": { "type": "Point", "coordinates": [ 8.5488592, 47.3659676 ] } },
{ "type": "Feature", "properties": { "osm_id": "1069585385", "code": 2203, "fclass": "cinema", "name": "Arthouse Piccadilly 2" }, "geometry": { "type": "Point", "coordinates": [ 8.5489827, 47.3659867 ] } },
{ "type": "Feature", "properties": { "osm_id": "1069585412", "code": 2203, "fclass": "cinema", "name": "Arthouse Le Paris" }, "geometry": { "type": "Point", "coordinates": [ 8.5474257, 47.3663519 ] } },
{ "type": "Feature", "properties": { "osm_id": "1069585416", "code": 2203, "fclass": "cinema", "name": "Abaton" }, "geometry": { "type": "Point", "coordinates": [ 8.5215125, 47.3892619 ] } },
{ "type": "Feature", "properties": { "osm_id": "1069585421", "code": 2203, "fclass": "cinema", "name": "Riffraff 1 + 2" }, "geometry": { "type": "Point", "coordinates": [ 8.5293328, 47.3826641 ] } },
{ "type": "Feature", "properties": { "osm_id": "1072474406", "code": 2203, "fclass": "cinema", "name": "Kinopalast" }, "geometry": { "type": "Point", "coordinates": [ 7.5932104, 47.5904855 ] } },
{ "type": "Feature", "properties": { "osm_id": "1103519400", "code": 2203, "fclass": "cinema", "name": "Seefeld" }, "geometry": { "type": "Point", "coordinates": [ 8.244953, 46.8885772 ] } },
{ "type": "Feature", "properties": { "osm_id": "1143613139", "code": 2203, "fclass": "cinema", "name": null }, "geometry": { "type": "Point", "coordinates": [ 7.5770101, 47.5398965 ] } },
{ "type": "Feature", "properties": { "osm_id": "1152744827", "code": 2203, "fclass": "cinema", "name": "Cinema Sil Plaz" }, "geometry": { "type": "Point", "coordinates": [ 9.2049444, 46.77473 ] } },
{ "type": "Feature", "properties": { "osm_id": "1241605940", "code": 2203, "fclass": "cinema", "name": "Le Royal" }, "geometry": { "type": "Point", "coordinates": [ 6.5007232, 46.8236509 ] } },
{ "type": "Feature", "properties": { "osm_id": "1261933574", "code": 2203, "fclass": "cinema", "name": "Cinema Forum" }, "geometry": { "type": "Point", "coordinates": [ 9.0279397, 46.1950434 ] } },
{ "type": "Feature", "properties": { "osm_id": "1263754509", "code": 2203, "fclass": "cinema", "name": "Cinéma Bellevaux" }, "geometry": { "type": "Point", "coordinates": [ 6.6308459, 46.5328738 ] } },
{ "type": "Feature", "properties": { "osm_id": "1274323366", "code": 2203, "fclass": "cinema", "name": "cineClub" }, "geometry": { "type": "Point", "coordinates": [ 7.4351594, 46.9470493 ] } },
{ "type": "Feature", "properties": { "osm_id": "1406900341", "code": 2203, "fclass": "cinema", "name": "Odeon Brugg" }, "geometry": { "type": "Point", "coordinates": [ 8.2086549, 47.4813572 ] } },
{ "type": "Feature", "properties": { "osm_id": "1464505190", "code": 2203, "fclass": "cinema", "name": "Auditorium Fondation Arditi" }, "geometry": { "type": "Point", "coordinates": [ 6.1399018, 46.2009726 ] } },
{ "type": "Feature", "properties": { "osm_id": "1464505195", "code": 2203, "fclass": "cinema", "name": "Les Scala" }, "geometry": { "type": "Point", "coordinates": [ 6.1581025, 46.204122 ] } },
{ "type": "Feature", "properties": { "osm_id": "1464820955", "code": 2203, "fclass": "cinema", "name": "Ciné 17" }, "geometry": { "type": "Point", "coordinates": [ 6.14376, 46.2022747 ] } },
{ "type": "Feature", "properties": { "osm_id": "1464820962", "code": 2203, "fclass": "cinema", "name": "Spoutnik" }, "geometry": { "type": "Point", "coordinates": [ 6.136084, 46.2039211 ] } },
{ "type": "Feature", "properties": { "osm_id": "1464820975", "code": 2203, "fclass": "cinema", "name": "Le Nord-Sud" }, "geometry": { "type": "Point", "coordinates": [ 6.1325489, 46.2124835 ] } },
{ "type": "Feature", "properties": { "osm_id": "1464820980", "code": 2203, "fclass": "cinema", "name": "Cinélux" }, "geometry": { "type": "Point", "coordinates": [ 6.1314837, 46.2011449 ] } },
{ "type": "Feature", "properties": { "osm_id": "1464820981", "code": 2203, "fclass": "cinema", "name": "Cinémas du Grütli" }, "geometry": { "type": "Point", "coordinates": [ 6.1415542, 46.2011584 ] } },
{ "type": "Feature", "properties": { "osm_id": "1532775961", "code": 2203, "fclass": "cinema", "name": "Schlosskino" }, "geometry": { "type": "Point", "coordinates": [ 8.8969512, 47.5550972 ] } },
{ "type": "Feature", "properties": { "osm_id": "1668069719", "code": 2203, "fclass": "cinema", "name": "Cinémotion REX" }, "geometry": { "type": "Point", "coordinates": [ 7.1515071, 46.8016841 ] } },
{ "type": "Feature", "properties": { "osm_id": "1678259471", "code": 2203, "fclass": "cinema", "name": "Kino im Uferbau" }, "geometry": { "type": "Point", "coordinates": [ 7.5403272, 47.2071345 ] } },
{ "type": "Feature", "properties": { "osm_id": "1716282254", "code": 2203, "fclass": "cinema", "name": "Le Capitole" }, "geometry": { "type": "Point", "coordinates": [ 6.6357508, 46.5185518 ] } },
{ "type": "Feature", "properties": { "osm_id": "1740248979", "code": 2203, "fclass": "cinema", "name": "Cinéma du Bourg" }, "geometry": { "type": "Point", "coordinates": [ 7.5342835, 46.2937015 ] } },
{ "type": "Feature", "properties": { "osm_id": "1766754356", "code": 2203, "fclass": "cinema", "name": "Apollo" }, "geometry": { "type": "Point", "coordinates": [ 7.3041683, 47.0765605 ] } },
{ "type": "Feature", "properties": { "osm_id": "1775842549", "code": 2203, "fclass": "cinema", "name": "Rex" }, "geometry": { "type": "Point", "coordinates": [ 6.3901109, 46.4955636 ] } },
{ "type": "Feature", "properties": { "osm_id": "1785896627", "code": 2203, "fclass": "cinema", "name": "Kino Näfels" }, "geometry": { "type": "Point", "coordinates": [ 9.0632656, 47.0975686 ] } },
{ "type": "Feature", "properties": { "osm_id": "1787803554", "code": 2203, "fclass": "cinema", "name": "fricks monti" }, "geometry": { "type": "Point", "coordinates": [ 8.020295, 47.5083347 ] } },
{ "type": "Feature", "properties": { "osm_id": "1932167906", "code": 2203, "fclass": "cinema", "name": "Studiokino" }, "geometry": { "type": "Point", "coordinates": [ 7.7936263, 47.5535669 ] } },
{ "type": "Feature", "properties": { "osm_id": "1934343380", "code": 2203, "fclass": "cinema", "name": "Kino Meiringen" }, "geometry": { "type": "Point", "coordinates": [ 8.1876112, 46.7280707 ] } },
{ "type": "Feature", "properties": { "osm_id": "1936575906", "code": 2203, "fclass": "cinema", "name": "Cinérama Empire" }, "geometry": { "type": "Point", "coordinates": [ 6.1436666, 46.1925264 ] } },
{ "type": "Feature", "properties": { "osm_id": "2781785220", "code": 2203, "fclass": "cinema", "name": "Centro Citadella" }, "geometry": { "type": "Point", "coordinates": [ 8.9560782, 46.0100664 ] } },
{ "type": "Feature", "properties": { "osm_id": "2824748760", "code": 2203, "fclass": "cinema", "name": "Kino Rex" }, "geometry": { "type": "Point", "coordinates": [ 7.625591, 46.7590301 ] } },
{ "type": "Feature", "properties": { "osm_id": "2906841538", "code": 2203, "fclass": "cinema", "name": "Cinema Palace" }, "geometry": { "type": "Point", "coordinates": [ 7.2856938, 47.2373753 ] } },
{ "type": "Feature", "properties": { "osm_id": "2953822533", "code": 2203, "fclass": "cinema", "name": "Houdini" }, "geometry": { "type": "Point", "coordinates": [ 8.5201723, 47.3746221 ] } },
{ "type": "Feature", "properties": { "osm_id": "3037444583", "code": 2203, "fclass": "cinema", "name": "Cinema Plaza" }, "geometry": { "type": "Point", "coordinates": [ 8.9861429, 45.8705682 ] } },
{ "type": "Feature", "properties": { "osm_id": "3087536398", "code": 2203, "fclass": "cinema", "name": "Jungfrau Panorama" }, "geometry": { "type": "Point", "coordinates": [ 7.9849996, 46.5474999 ] } },
{ "type": "Feature", "properties": { "osm_id": "3098063677", "code": 2203, "fclass": "cinema", "name": "Lichtspiel / Kinemathek" }, "geometry": { "type": "Point", "coordinates": [ 7.4421399, 46.9404989 ] } },
{ "type": "Feature", "properties": { "osm_id": "3124328160", "code": 2203, "fclass": "cinema", "name": "Leuzinger" }, "geometry": { "type": "Point", "coordinates": [ 8.8192389, 47.227475 ] } },
{ "type": "Feature", "properties": { "osm_id": "3134178674", "code": 2203, "fclass": "cinema", "name": "Panorama-Film" }, "geometry": { "type": "Point", "coordinates": [ 9.6273906, 47.4543291 ] } },
{ "type": "Feature", "properties": { "osm_id": "3156559913", "code": 2203, "fclass": "cinema", "name": "Sirius" }, "geometry": { "type": "Point", "coordinates": [ 6.9004569, 46.5282172 ] } },
{ "type": "Feature", "properties": { "osm_id": "3196217826", "code": 2203, "fclass": "cinema", "name": "Kiwi Scala" }, "geometry": { "type": "Point", "coordinates": [ 8.638268, 47.6961519 ] } },
{ "type": "Feature", "properties": { "osm_id": "3211222024", "code": 2203, "fclass": "cinema", "name": "splendid" }, "geometry": { "type": "Point", "coordinates": [ 7.4417216, 46.9485801 ] } },
{ "type": "Feature", "properties": { "osm_id": "3211275460", "code": 2203, "fclass": "cinema", "name": "cineMovie 3" }, "geometry": { "type": "Point", "coordinates": [ 7.4352146, 46.946881 ] } },
{ "type": "Feature", "properties": { "osm_id": "3211276061", "code": 2203, "fclass": "cinema", "name": "cineMovie 2" }, "geometry": { "type": "Point", "coordinates": [ 7.4353358, 46.9469167 ] } },
{ "type": "Feature", "properties": { "osm_id": "3239093800", "code": 2203, "fclass": "cinema", "name": "GranRex" }, "geometry": { "type": "Point", "coordinates": [ 8.7943491, 46.1692289 ] } },
{ "type": "Feature", "properties": { "osm_id": "3323252269", "code": 2203, "fclass": "cinema", "name": "Cinema Multisala Teatro" }, "geometry": { "type": "Point", "coordinates": [ 8.986142, 45.8722987 ] } },
{ "type": "Feature", "properties": { "osm_id": "3416273105", "code": 2203, "fclass": "cinema", "name": "Bel-Air" }, "geometry": { "type": "Point", "coordinates": [ 6.6367445, 46.7803565 ] } },
{ "type": "Feature", "properties": { "osm_id": "3416284599", "code": 2203, "fclass": "cinema", "name": "Casino SA" }, "geometry": { "type": "Point", "coordinates": [ 6.5084754, 46.6129895 ] } },
{ "type": "Feature", "properties": { "osm_id": "3625211452", "code": 2203, "fclass": "cinema", "name": "le cinéma Feuerwehrmagazin n°1" }, "geometry": { "type": "Point", "coordinates": [ 7.1176747, 46.9277994 ] } },
{ "type": "Feature", "properties": { "osm_id": "3676232684", "code": 2203, "fclass": "cinema", "name": "Kino Rätia" }, "geometry": { "type": "Point", "coordinates": [ 9.439021, 46.6955879 ] } },
{ "type": "Feature", "properties": { "osm_id": "3794315359", "code": 2203, "fclass": "cinema", "name": "Cinema 8" }, "geometry": { "type": "Point", "coordinates": [ 8.0533542, 47.3141118 ] } },
{ "type": "Feature", "properties": { "osm_id": "3826674660", "code": 2203, "fclass": "cinema", "name": "Cinedome" }, "geometry": { "type": "Point", "coordinates": [ 7.2812113, 47.1556839 ] } },
{ "type": "Feature", "properties": { "osm_id": "3876214045", "code": 2203, "fclass": "cinema", "name": "L'Arlequin" }, "geometry": { "type": "Point", "coordinates": [ 7.3607866, 46.2301979 ] } },
{ "type": "Feature", "properties": { "osm_id": "3898728744", "code": 2203, "fclass": "cinema", "name": "Cameo" }, "geometry": { "type": "Point", "coordinates": [ 8.7180068, 47.4944778 ] } },
{ "type": "Feature", "properties": { "osm_id": "4109593942", "code": 2203, "fclass": "cinema", "name": "Kino um die Ecke" }, "geometry": { "type": "Point", "coordinates": [ 7.4971583, 46.8905549 ] } },
{ "type": "Feature", "properties": { "osm_id": "4163517489", "code": 2203, "fclass": "cinema", "name": "Kult Kino Camera" }, "geometry": { "type": "Point", "coordinates": [ 7.5940753, 47.5611167 ] } },
{ "type": "Feature", "properties": { "osm_id": "4226641586", "code": 2203, "fclass": "cinema", "name": "kult.kino" }, "geometry": { "type": "Point", "coordinates": [ 7.5904017, 47.5535868 ] } },
{ "type": "Feature", "properties": { "osm_id": "4734136134", "code": 2203, "fclass": "cinema", "name": "Palass" }, "geometry": { "type": "Point", "coordinates": [ 7.9459115, 47.2868184 ] } },
{ "type": "Feature", "properties": { "osm_id": "4841545861", "code": 2203, "fclass": "cinema", "name": "Walche" }, "geometry": { "type": "Point", "coordinates": [ 8.5421676, 47.3800062 ] } },
{ "type": "Feature", "properties": { "osm_id": "4949509622", "code": 2203, "fclass": "cinema", "name": "Cinéma Le Regency" }, "geometry": { "type": "Point", "coordinates": [ 7.0142771, 46.3439928 ] } },
{ "type": "Feature", "properties": { "osm_id": "4991220817", "code": 2203, "fclass": "cinema", "name": "Kino Scala Langenthal" }, "geometry": { "type": "Point", "coordinates": [ 7.7866067, 47.2102046 ] } },
{ "type": "Feature", "properties": { "osm_id": "5083154970", "code": 2203, "fclass": "cinema", "name": "Kinokoni" }, "geometry": { "type": "Point", "coordinates": [ 8.5290799, 47.3803018 ] } },
{ "type": "Feature", "properties": { "osm_id": "5096465456", "code": 2203, "fclass": "cinema", "name": "IMAX-Kino Pathé" }, "geometry": { "type": "Point", "coordinates": [ 8.3574797, 47.0923671 ] } },
{ "type": "Feature", "properties": { "osm_id": "5124218355", "code": 2203, "fclass": "cinema", "name": "Kino Stans" }, "geometry": { "type": "Point", "coordinates": [ 8.3561254, 46.9640766 ] } },
{ "type": "Feature", "properties": { "osm_id": "5151401063", "code": 2203, "fclass": "cinema", "name": "Cinecrans" }, "geometry": { "type": "Point", "coordinates": [ 7.4687386, 46.3081159 ] } },
{ "type": "Feature", "properties": { "osm_id": "5246987737", "code": 2203, "fclass": "cinema", "name": "Capitol" }, "geometry": { "type": "Point", "coordinates": [ 7.5362071, 47.2043263 ] } },
{ "type": "Feature", "properties": { "osm_id": "5334093612", "code": 2203, "fclass": "cinema", "name": "aditorium" }, "geometry": { "type": "Point", "coordinates": [ 8.8491384, 47.2605805 ] } },
{ "type": "Feature", "properties": { "osm_id": "5433821714", "code": 2203, "fclass": "cinema", "name": "Cinevital" }, "geometry": { "type": "Point", "coordinates": [ 7.2452617, 47.1353757 ] } },
{ "type": "Feature", "properties": { "osm_id": "5462385083", "code": 2203, "fclass": "cinema", "name": "Hollywood" }, "geometry": { "type": "Point", "coordinates": [ 6.9085159, 46.4370535 ] } },
{ "type": "Feature", "properties": { "osm_id": "5469805827", "code": 2203, "fclass": "cinema", "name": "Fonction-Cinéma" }, "geometry": { "type": "Point", "coordinates": [ 6.1416872, 46.2009944 ] } },
{ "type": "Feature", "properties": { "osm_id": "5489223499", "code": 2203, "fclass": "cinema", "name": "Kino Onik" }, "geometry": { "type": "Point", "coordinates": [ 7.7230153, 47.2903852 ] } },
{ "type": "Feature", "properties": { "osm_id": "5491523629", "code": 2203, "fclass": "cinema", "name": "Cinéma Casino" }, "geometry": { "type": "Point", "coordinates": [ 7.5303062, 46.2918185 ] } },
{ "type": "Feature", "properties": { "osm_id": "5518142476", "code": 2203, "fclass": "cinema", "name": "Rex" }, "geometry": { "type": "Point", "coordinates": [ 9.9047775, 46.4916856 ] } },
{ "type": "Feature", "properties": { "osm_id": "5549893521", "code": 2203, "fclass": "cinema", "name": "Cinéma Arena la Praille" }, "geometry": { "type": "Point", "coordinates": [ 6.1277921, 46.1794646 ] } },
{ "type": "Feature", "properties": { "osm_id": "5586524520", "code": 2203, "fclass": "cinema", "name": "Cinéma de la Neuveville" }, "geometry": { "type": "Point", "coordinates": [ 7.0946772, 47.0630528 ] } },
{ "type": "Feature", "properties": { "osm_id": "5632591926", "code": 2203, "fclass": "cinema", "name": "The Hideaway" }, "geometry": { "type": "Point", "coordinates": [ 9.2825731, 46.8329183 ] } },
{ "type": "Feature", "properties": { "osm_id": "5694555039", "code": 2203, "fclass": "cinema", "name": "Beluga" }, "geometry": { "type": "Point", "coordinates": [ 7.2456475, 47.1385042 ] } },
{ "type": "Feature", "properties": { "osm_id": "5966081335", "code": 2203, "fclass": "cinema", "name": "Cinema IRIDE" }, "geometry": { "type": "Point", "coordinates": [ 8.9537788, 46.0048656 ] } },
{ "type": "Feature", "properties": { "osm_id": "5966091088", "code": 2203, "fclass": "cinema", "name": "LUX art house" }, "geometry": { "type": "Point", "coordinates": [ 8.9437782, 46.0124649 ] } },
{ "type": "Feature", "properties": { "osm_id": "5966166512", "code": 2203, "fclass": "cinema", "name": "PalaCinema" }, "geometry": { "type": "Point", "coordinates": [ 8.794611, 46.1680286 ] } },
{ "type": "Feature", "properties": { "osm_id": "6104066970", "code": 2203, "fclass": "cinema", "name": "Apollo" }, "geometry": { "type": "Point", "coordinates": [ 9.5244625, 46.8550463 ] } },
{ "type": "Feature", "properties": { "osm_id": "6176912903", "code": 2203, "fclass": "cinema", "name": "Cinedome" }, "geometry": { "type": "Point", "coordinates": [ 7.5023797, 46.9271637 ] } },
{ "type": "Feature", "properties": { "osm_id": "6223166402", "code": 2203, "fclass": "cinema", "name": "Stadtkino Basel" }, "geometry": { "type": "Point", "coordinates": [ 7.590796, 47.553167 ] } },
{ "type": "Feature", "properties": { "osm_id": "6297307151", "code": 2203, "fclass": "cinema", "name": "Lux" }, "geometry": { "type": "Point", "coordinates": [ 7.004393, 47.2126433 ] } },
{ "type": "Feature", "properties": { "osm_id": "6372498624", "code": 2203, "fclass": "cinema", "name": "Pathé" }, "geometry": { "type": "Point", "coordinates": [ 7.5883066, 47.5523081 ] } },
{ "type": "Feature", "properties": { "osm_id": "6498626762", "code": 2203, "fclass": "cinema", "name": "Pathé" }, "geometry": { "type": "Point", "coordinates": [ 8.3718685, 47.4209519 ] } },
{ "type": "Feature", "properties": { "osm_id": "6703441114", "code": 2203, "fclass": "cinema", "name": "Le Cinoche" }, "geometry": { "type": "Point", "coordinates": [ 7.3704193, 47.2773497 ] } },
{ "type": "Feature", "properties": { "osm_id": "6765966320", "code": 2203, "fclass": "cinema", "name": "Cinéma de Chexbres" }, "geometry": { "type": "Point", "coordinates": [ 6.7801447, 46.4811508 ] } },
{ "type": "Feature", "properties": { "osm_id": "6898535586", "code": 2203, "fclass": "cinema", "name": "Oblò" }, "geometry": { "type": "Point", "coordinates": [ 6.624014, 46.5240999 ] } },
{ "type": "Feature", "properties": { "osm_id": "6942571195", "code": 2203, "fclass": "cinema", "name": "Arena Cinemas" }, "geometry": { "type": "Point", "coordinates": [ 9.0592088, 47.0681787 ] } },
{ "type": "Feature", "properties": { "osm_id": "7107728319", "code": 2203, "fclass": "cinema", "name": "Cinémajoie" }, "geometry": { "type": "Point", "coordinates": [ 7.0760591, 47.4207478 ] } },
{ "type": "Feature", "properties": { "osm_id": "7132139631", "code": 2203, "fclass": "cinema", "name": "Cinéma Lenk" }, "geometry": { "type": "Point", "coordinates": [ 7.4413302, 46.4580997 ] } },
{ "type": "Feature", "properties": { "osm_id": "7352254941", "code": 2203, "fclass": "cinema", "name": "CityClub Pully" }, "geometry": { "type": "Point", "coordinates": [ 6.6589031, 46.5120427 ] } },
{ "type": "Feature", "properties": { "osm_id": "7749609008", "code": 2203, "fclass": "cinema", "name": "Cinema Wngen" }, "geometry": { "type": "Point", "coordinates": [ 7.9208819, 46.6077273 ] } },
{ "type": "Feature", "properties": { "osm_id": "7804989120", "code": 2203, "fclass": "cinema", "name": "Kino Rosental" }, "geometry": { "type": "Point", "coordinates": [ 9.5333822, 47.4426008 ] } },
{ "type": "Feature", "properties": { "osm_id": "7869379848", "code": 2203, "fclass": "cinema", "name": "Lounge-Kino" }, "geometry": { "type": "Point", "coordinates": [ 8.8645255, 47.225765 ] } },
{ "type": "Feature", "properties": { "osm_id": "7873024397", "code": 2203, "fclass": "cinema", "name": "Kino Muotathal" }, "geometry": { "type": "Point", "coordinates": [ 8.756884, 46.9768513 ] } },
{ "type": "Feature", "properties": { "osm_id": "8011299899", "code": 2203, "fclass": "cinema", "name": "Le Corso" }, "geometry": { "type": "Point", "coordinates": [ 7.0690383, 46.0972077 ] } },
{ "type": "Feature", "properties": { "osm_id": "8401931886", "code": 2203, "fclass": "cinema", "name": "cinéma sibir" }, "geometry": { "type": "Point", "coordinates": [ 8.2454842, 46.4682919 ] } },
{ "type": "Feature", "properties": { "osm_id": "8524689456", "code": 2203, "fclass": "cinema", "name": "Pathé Galeries" }, "geometry": { "type": "Point", "coordinates": [ 6.6300349, 46.5181289 ] } },
{ "type": "Feature", "properties": { "osm_id": "8567554900", "code": 2203, "fclass": "cinema", "name": "cinestudio" }, "geometry": { "type": "Point", "coordinates": [ 6.6427265, 46.7659993 ] } },
{ "type": "Feature", "properties": { "osm_id": "9170074857", "code": 2203, "fclass": "cinema", "name": "Rex" }, "geometry": { "type": "Point", "coordinates": [ 8.9804846, 47.2247917 ] } },
{ "type": "Feature", "properties": { "osm_id": "9308209740", "code": 2203, "fclass": "cinema", "name": "Kino Schwyz" }, "geometry": { "type": "Point", "coordinates": [ 8.6547265, 47.0210317 ] } },
{ "type": "Feature", "properties": { "osm_id": "9308476984", "code": 2203, "fclass": "cinema", "name": "Kinepolis" }, "geometry": { "type": "Point", "coordinates": [ 8.6562453, 47.7135309 ] } },
{ "type": "Feature", "properties": { "osm_id": "9369485083", "code": 2203, "fclass": "cinema", "name": "Cinema Luna" }, "geometry": { "type": "Point", "coordinates": [ 8.8957886, 47.558294 ] } },
{ "type": "Feature", "properties": { "osm_id": "9529779005", "code": 2203, "fclass": "cinema", "name": "Arena Cinemas" }, "geometry": { "type": "Point", "coordinates": [ 7.5963877, 47.5816226 ] } },
{ "type": "Feature", "properties": { "osm_id": "9965426308", "code": 2203, "fclass": "cinema", "name": null }, "geometry": { "type": "Point", "coordinates": [ 7.0288143, 46.278394 ] } },
{ "type": "Feature", "properties": { "osm_id": "10801180809", "code": 2203, "fclass": "cinema", "name": "Sputnik" }, "geometry": { "type": "Point", "coordinates": [ 7.732171, 47.4841335 ] } },
{ "type": "Feature", "properties": { "osm_id": "11177634429", "code": 2203, "fclass": "cinema", "name": "Filmpodium Biel/Bienne" }, "geometry": { "type": "Point", "coordinates": [ 7.239702, 47.1389074 ] } },
{ "type": "Feature", "properties": { "osm_id": "11226843379", "code": 2203, "fclass": "cinema", "name": "Kino Mansarde" }, "geometry": { "type": "Point", "coordinates": [ 8.3385655, 47.2743384 ] } },
{ "type": "Feature", "properties": { "osm_id": "11328806383", "code": 2203, "fclass": "cinema", "name": "Cinéma d'Oron" }, "geometry": { "type": "Point", "coordinates": [ 6.8268031, 46.5707736 ] } },
{ "type": "Feature", "properties": { "osm_id": "11638905987", "code": 2203, "fclass": "cinema", "name": "Blue Factory, Cinéma Stern" }, "geometry": { "type": "Point", "coordinates": [ 7.147921, 46.7983212 ] } },
{ "type": "Feature", "properties": { "osm_id": "11642482015", "code": 2203, "fclass": "cinema", "name": "Ciné Club Le Locle" }, "geometry": { "type": "Point", "coordinates": [ 6.7471712, 47.0558682 ] } },
{ "type": "Feature", "properties": { "osm_id": "11672238730", "code": 2203, "fclass": "cinema", "name": "Le Cinématographe" }, "geometry": { "type": "Point", "coordinates": [ 6.6252365, 46.5204292 ] } },
{ "type": "Feature", "properties": { "osm_id": "11841959191", "code": 2203, "fclass": "cinema", "name": "CDD" }, "geometry": { "type": "Point", "coordinates": [ 6.1276473, 46.2073779 ] } },
{ "type": "Feature", "properties": { "osm_id": "11851410057", "code": 2203, "fclass": "cinema", "name": "Kino Rex" }, "geometry": { "type": "Point", "coordinates": [ 7.3944432, 47.1916596 ] } },
{ "type": "Feature", "properties": { "osm_id": "11983684090", "code": 2203, "fclass": "cinema", "name": "Scala Cinema" }, "geometry": { "type": "Point", "coordinates": [ 9.8412491, 46.4994677 ] } },
{ "type": "Feature", "properties": { "osm_id": "12068314449", "code": 2203, "fclass": "cinema", "name": "Kulturschuppen Klosters" }, "geometry": { "type": "Point", "coordinates": [ 9.8805479, 46.8701183 ] } },
{ "type": "Feature", "properties": { "osm_id": "12071282142", "code": 2203, "fclass": "cinema", "name": "Academy, Zürich" }, "geometry": { "type": "Point", "coordinates": [ 8.5438607, 47.373069 ] } },
{ "type": "Feature", "properties": { "osm_id": "12269139016", "code": 2203, "fclass": "cinema", "name": "Colisée" }, "geometry": { "type": "Point", "coordinates": [ 6.6346989, 46.922033 ] } },
{ "type": "Feature", "properties": { "osm_id": "12877070544", "code": 2203, "fclass": "cinema", "name": "Cinema Palace" }, "geometry": { "type": "Point", "coordinates": [ 7.5376565, 47.207966 ] } },
{ "type": "Feature", "properties": { "osm_id": "12920497505", "code": 2203, "fclass": "cinema", "name": "Le Kremlin" }, "geometry": { "type": "Point", "coordinates": [ 6.9490597, 46.2524638 ] } },
{ "type": "Feature", "properties": { "osm_id": "12976864891", "code": 2203, "fclass": "cinema", "name": "Cinepol" }, "geometry": { "type": "Point", "coordinates": [ 8.3949718, 47.1934481 ] } },
{ "type": "Feature", "properties": { "osm_id": "13596322538", "code": 2203, "fclass": "cinema", "name": "blue Cinema" }, "geometry": { "type": "Point", "coordinates": [ 6.1444487, 46.2035982 ] } },
{ "type": "Feature", "properties": { "osm_id": "13623813890", "code": 2203, "fclass": "cinema", "name": "CinéTransat" }, "geometry": { "type": "Point", "coordinates": [ 6.1530255, 46.2212672 ] } },
{ "type": "Feature", "properties": { "osm_id": "13624005338", "code": 2203, "fclass": "cinema", "name": "Allianz Cinema" }, "geometry": { "type": "Point", "coordinates": [ 6.1702284, 46.2112516 ] } },
{ "type": "Feature", "properties": { "osm_id": "13626718465", "code": 2203, "fclass": "cinema", "name": "Cinémargand" }, "geometry": { "type": "Point", "coordinates": [ 6.2035009, 46.2490924 ] } },
{ "type": "Feature", "properties": { "osm_id": "13626718466", "code": 2203, "fclass": "cinema", "name": "CinéVersoix" }, "geometry": { "type": "Point", "coordinates": [ 6.1630632, 46.2786595 ] } },
{ "type": "Feature", "properties": { "osm_id": "13639636452", "code": 2203, "fclass": "cinema", "name": "CinéKid" }, "geometry": { "type": "Point", "coordinates": [ 6.1144402, 46.1850612 ] } },
{ "type": "Feature", "properties": { "osm_id": "13703529916", "code": 2203, "fclass": "cinema", "name": "KINOKONI Basel" }, "geometry": { "type": "Point", "coordinates": [ 7.5882102, 47.5526392 ] } }
]
}
