{
"type": "FeatureCollection",
"name": "monuments",
"crs": { "type": "name", "properties": { "name": "urn:ogc:def:crs:OGC:1.3:CRS84" } },
"features": [
{ "type": "Feature", "properties": { "osm_id": "24977811", "code": 2723, "fclass": "monument", "name": "Telldenkmal" }, "geometry": { "type": "Point", "coordinates": [ 8.6439554, 46.8817746 ] } },
{ "type": "Feature", "properties": { "osm_id": "216199023", "code": 2723, "fclass": "monument", "name": "Forchdenkmal" }, "geometry": { "type": "Point", "coordinates": [ 8.6470096, 47.3284081 ] } },
{ "type": "Feature", "properties": { "osm_id": "306219698", "code": 2723, "fclass": "monument", "name": "Sanctus Benedictus - Patriarcha Monachorum" }, "geometry": { "type": "Point", "coordinates": [ 8.7576869, 47.127285 ] } },
{ "type": "Feature", "properties": { "osm_id": "331314607", "code": 2723, "fclass": "monument", "name": null }, "geometry": { "type": "Point", "coordinates": [ 6.5381334, 46.8515105 ] } },
{ "type": "Feature", "properties": { "osm_id": "363778059", "code": 2723, "fclass": "monument", "name": "Stromatolites" }, "geometry": { "type": "Point", "coordinates": [ 6.948414, 47.0185608 ] } },
{ "type": "Feature", "properties": { "osm_id": "369779630", "code": 2723, "fclass": "monument", "name": null }, "geometry": { "type": "Point", "coordinates": [ 6.8793639, 46.445617 ] } },
{ "type": "Feature", "properties": { "osm_id": "375693079", "code": 2723, "fclass": "monument", "name": "Lo Spartaco di Vela" }, "geometry": { "type": "Point", "coordinates": [ 8.951329, 46.003367 ] } },
{ "type": "Feature", "properties": { "osm_id": "411069610", "code": 2723, "fclass": "monument", "name": "Berghaus Tschentenalp" }, "geometry": { "type": "Point", "coordinates": [ 7.54565, 46.4985849 ] } },
{ "type": "Feature", "properties": { "osm_id": "416064320", "code": 2723, "fclass": "monument", "name": null }, "geometry": { "type": "Point", "coordinates": [ 8.3750699, 47.3946841 ] } },
{ "type": "Feature", "properties": { "osm_id": "418190176", "code": 2723, "fclass": "monument", "name": "Heinrich Simon Denkmal" }, "geometry": { "type": "Point", "coordinates": [ 9.2133531, 47.1122006 ] } },
{ "type": "Feature", "properties": { "osm_id": "423833234", "code": 2723, "fclass": "monument", "name": "Statue 1er Mars" }, "geometry": { "type": "Point", "coordinates": [ 6.9337631, 46.9922059 ] } },
{ "type": "Feature", "properties": { "osm_id": "506769002", "code": 2723, "fclass": "monument", "name": "Pont du Diable" }, "geometry": { "type": "Point", "coordinates": [ 7.3221917, 46.2709494 ] } },
{ "type": "Feature", "properties": { "osm_id": "507874211", "code": 2723, "fclass": "monument", "name": "Gemeindehaus" }, "geometry": { "type": "Point", "coordinates": [ 9.2880624, 47.4697362 ] } },
{ "type": "Feature", "properties": { "osm_id": "537688886", "code": 2723, "fclass": "monument", "name": "Ulrich Stucky" }, "geometry": { "type": "Point", "coordinates": [ 7.4750806, 46.9474295 ] } },
{ "type": "Feature", "properties": { "osm_id": "587984400", "code": 2723, "fclass": "monument", "name": null }, "geometry": { "type": "Point", "coordinates": [ 8.0652389, 47.1901098 ] } },
{ "type": "Feature", "properties": { "osm_id": "777295213", "code": 2723, "fclass": "monument", "name": null }, "geometry": { "type": "Point", "coordinates": [ 7.170139, 46.8387748 ] } },
{ "type": "Feature", "properties": { "osm_id": "820926054", "code": 2723, "fclass": "monument", "name": "Bollenhof" }, "geometry": { "type": "Point", "coordinates": [ 8.3675307, 47.4028467 ] } },
{ "type": "Feature", "properties": { "osm_id": "842190646", "code": 2723, "fclass": "monument", "name": "Suworowdenkmal" }, "geometry": { "type": "Point", "coordinates": [ 8.5918932, 46.6473471 ] } },
{ "type": "Feature", "properties": { "osm_id": "845365988", "code": 2723, "fclass": "monument", "name": "Hülftenschanz" }, "geometry": { "type": "Point", "coordinates": [ 7.715558, 47.5129853 ] } },
{ "type": "Feature", "properties": { "osm_id": "847851035", "code": 2723, "fclass": "monument", "name": "Statue Muttergottes" }, "geometry": { "type": "Point", "coordinates": [ 8.7569811, 47.1435476 ] } },
{ "type": "Feature", "properties": { "osm_id": "850476139", "code": 2723, "fclass": "monument", "name": "Dreiländerstein" }, "geometry": { "type": "Point", "coordinates": [ 8.8085977, 47.2200875 ] } },
{ "type": "Feature", "properties": { "osm_id": "971656921", "code": 2723, "fclass": "monument", "name": null }, "geometry": { "type": "Point", "coordinates": [ 8.098668, 47.506849 ] } },
{ "type": "Feature", "properties": { "osm_id": "1029220631", "code": 2723, "fclass": "monument", "name": "Den Opfern unseres Friedens" }, "geometry": { "type": "Point", "coordinates": [ 7.7853879, 46.941808 ] } },
{ "type": "Feature", "properties": { "osm_id": "1139545898", "code": 2723, "fclass": "monument", "name": "Statue du Christ-Roi" }, "geometry": { "type": "Point", "coordinates": [ 7.4375227, 46.2730737 ] } },
{ "type": "Feature", "properties": { "osm_id": "1200375410", "code": 2723, "fclass": "monument", "name": null }, "geometry": { "type": "Point", "coordinates": [ 7.3722619, 47.1333833 ] } },
{ "type": "Feature", "properties": { "osm_id": "1259404870", "code": 2723, "fclass": "monument", "name": "Ferme des Troncs" }, "geometry": { "type": "Point", "coordinates": [ 6.7606263, 46.5891593 ] } },
{ "type": "Feature", "properties": { "osm_id": "1262590578", "code": 2723, "fclass": "monument", "name": "Statue" }, "geometry": { "type": "Point", "coordinates": [ 8.5327362, 47.3407121 ] } },
{ "type": "Feature", "properties": { "osm_id": "1301162985", "code": 2723, "fclass": "monument", "name": "Château de Champ-Pittet Pro Natura" }, "geometry": { "type": "Point", "coordinates": [ 6.665735, 46.7835573 ] } },
{ "type": "Feature", "properties": { "osm_id": "1313766561", "code": 2723, "fclass": "monument", "name": "Tour Bertholod" }, "geometry": { "type": "Point", "coordinates": [ 6.6921333, 46.5028124 ] } },
{ "type": "Feature", "properties": { "osm_id": "1468046197", "code": 2723, "fclass": "monument", "name": "Salginatobelbrücke" }, "geometry": { "type": "Point", "coordinates": [ 9.718408, 46.9817887 ] } },
{ "type": "Feature", "properties": { "osm_id": "1485039642", "code": 2723, "fclass": "monument", "name": "Löwendenkmal" }, "geometry": { "type": "Point", "coordinates": [ 8.310868, 47.0584443 ] } },
{ "type": "Feature", "properties": { "osm_id": "1584020940", "code": 2723, "fclass": "monument", "name": null }, "geometry": { "type": "Point", "coordinates": [ 8.1837278, 47.3715766 ] } },
{ "type": "Feature", "properties": { "osm_id": "1651369860", "code": 2723, "fclass": "monument", "name": "Wyssenmatti" }, "geometry": { "type": "Point", "coordinates": [ 7.6772545, 46.5778948 ] } },
{ "type": "Feature", "properties": { "osm_id": "1845150216", "code": 2723, "fclass": "monument", "name": "Naturdenkmal Eiche" }, "geometry": { "type": "Point", "coordinates": [ 9.6041894, 47.4642928 ] } },
{ "type": "Feature", "properties": { "osm_id": "1855844421", "code": 2723, "fclass": "monument", "name": null }, "geometry": { "type": "Point", "coordinates": [ 6.3364822, 46.5303551 ] } },
{ "type": "Feature", "properties": { "osm_id": "1949699974", "code": 2723, "fclass": "monument", "name": "old railway station" }, "geometry": { "type": "Point", "coordinates": [ 7.6344936, 46.7505638 ] } },
{ "type": "Feature", "properties": { "osm_id": "1956203209", "code": 2723, "fclass": "monument", "name": null }, "geometry": { "type": "Point", "coordinates": [ 7.2500061, 46.8947456 ] } },
{ "type": "Feature", "properties": { "osm_id": "1956203460", "code": 2723, "fclass": "monument", "name": null }, "geometry": { "type": "Point", "coordinates": [ 7.2511214, 46.8942988 ] } },
{ "type": "Feature", "properties": { "osm_id": "2017995356", "code": 2723, "fclass": "monument", "name": "Alte Eiche" }, "geometry": { "type": "Point", "coordinates": [ 8.1281184, 47.17597 ] } },
{ "type": "Feature", "properties": { "osm_id": "2030922245", "code": 2723, "fclass": "monument", "name": null }, "geometry": { "type": "Point", "coordinates": [ 9.5851687, 47.3990891 ] } },
{ "type": "Feature", "properties": { "osm_id": "2292525086", "code": 2723, "fclass": "monument", "name": null }, "geometry": { "type": "Point", "coordinates": [ 6.1538514, 46.2034569 ] } },
{ "type": "Feature", "properties": { "osm_id": "2385623649", "code": 2723, "fclass": "monument", "name": "Statue de Saint Bernard" }, "geometry": { "type": "Point", "coordinates": [ 7.164119, 45.8683223 ] } },
{ "type": "Feature", "properties": { "osm_id": "2405964664", "code": 2723, "fclass": "monument", "name": "Arthur Frey" }, "geometry": { "type": "Point", "coordinates": [ 8.3633263, 47.4783162 ] } },
{ "type": "Feature", "properties": { "osm_id": "2420044562", "code": 2723, "fclass": "monument", "name": "Monumento all'aviatore Guex" }, "geometry": { "type": "Point", "coordinates": [ 8.5668493, 46.5555569 ] } },
{ "type": "Feature", "properties": { "osm_id": "2429484084", "code": 2723, "fclass": "monument", "name": "Tombe de Charles Gleyre" }, "geometry": { "type": "Point", "coordinates": [ 6.477053, 46.6423851 ] } },
{ "type": "Feature", "properties": { "osm_id": "2566067511", "code": 2723, "fclass": "monument", "name": "Kaiserlinde" }, "geometry": { "type": "Point", "coordinates": [ 9.0388454, 47.4025097 ] } },
{ "type": "Feature", "properties": { "osm_id": "2628536977", "code": 2723, "fclass": "monument", "name": "Othmar Schoeck Denkmal" }, "geometry": { "type": "Point", "coordinates": [ 8.5952218, 46.9949671 ] } },
{ "type": "Feature", "properties": { "osm_id": "2686982641", "code": 2723, "fclass": "monument", "name": "Heinrich II" }, "geometry": { "type": "Point", "coordinates": [ 8.7511628, 47.1265542 ] } },
{ "type": "Feature", "properties": { "osm_id": "2686982642", "code": 2723, "fclass": "monument", "name": "Otto I" }, "geometry": { "type": "Point", "coordinates": [ 8.7511366, 47.1267334 ] } },
{ "type": "Feature", "properties": { "osm_id": "2694701495", "code": 2723, "fclass": "monument", "name": "Marienstatue" }, "geometry": { "type": "Point", "coordinates": [ 8.7506109, 47.1265817 ] } },
{ "type": "Feature", "properties": { "osm_id": "2783469048", "code": 2723, "fclass": "monument", "name": "Geissbrunne" }, "geometry": { "type": "Point", "coordinates": [ 7.9886727, 46.3167433 ] } },
{ "type": "Feature", "properties": { "osm_id": "2794048546", "code": 2723, "fclass": "monument", "name": "Cromlech de La Praz" }, "geometry": { "type": "Point", "coordinates": [ 6.4314367, 46.6583364 ] } },
{ "type": "Feature", "properties": { "osm_id": "2794048547", "code": 2723, "fclass": "monument", "name": "pierre pouilleuse" }, "geometry": { "type": "Point", "coordinates": [ 6.4354895, 46.657065 ] } },
{ "type": "Feature", "properties": { "osm_id": "2794057596", "code": 2723, "fclass": "monument", "name": "pierre aux écuielles" }, "geometry": { "type": "Point", "coordinates": [ 6.4180995, 46.6605094 ] } },
{ "type": "Feature", "properties": { "osm_id": "2863217583", "code": 2723, "fclass": "monument", "name": "Siegelturm" }, "geometry": { "type": "Point", "coordinates": [ 8.7518305, 47.6892437 ] } },
{ "type": "Feature", "properties": { "osm_id": "2863217584", "code": 2723, "fclass": "monument", "name": "Henkiturm" }, "geometry": { "type": "Point", "coordinates": [ 8.753729, 47.6898375 ] } },
{ "type": "Feature", "properties": { "osm_id": "2935927479", "code": 2723, "fclass": "monument", "name": "Generale Aleksandr Vasil'evič Suvorov" }, "geometry": { "type": "Point", "coordinates": [ 8.565712, 46.5551013 ] } },
{ "type": "Feature", "properties": { "osm_id": "2963274882", "code": 2723, "fclass": "monument", "name": "Gibet" }, "geometry": { "type": "Point", "coordinates": [ 6.4806718, 46.4962525 ] } },
{ "type": "Feature", "properties": { "osm_id": "2992466397", "code": 2723, "fclass": "monument", "name": "Vermessungsdenkmal Walperswil 1869" }, "geometry": { "type": "Point", "coordinates": [ 7.2338633, 47.0560028 ] } },
{ "type": "Feature", "properties": { "osm_id": "3007036067", "code": 2723, "fclass": "monument", "name": "Le naturaliste Suisse F. A. Forel" }, "geometry": { "type": "Point", "coordinates": [ 6.4951114, 46.5042378 ] } },
{ "type": "Feature", "properties": { "osm_id": "3007118364", "code": 2723, "fclass": "monument", "name": "Tombe du général d'Oyen" }, "geometry": { "type": "Point", "coordinates": [ 6.4950779, 46.5052467 ] } },
{ "type": "Feature", "properties": { "osm_id": "3007136438", "code": 2723, "fclass": "monument", "name": "Sculpture \"Bon oeil\"" }, "geometry": { "type": "Point", "coordinates": [ 6.4955656, 46.5063674 ] } },
{ "type": "Feature", "properties": { "osm_id": "3007137265", "code": 2723, "fclass": "monument", "name": "sculpture \"Le Papillion\"" }, "geometry": { "type": "Point", "coordinates": [ 6.4956541, 46.506312 ] } },
{ "type": "Feature", "properties": { "osm_id": "3007152042", "code": 2723, "fclass": "monument", "name": "Sculpture \" The unique garden chair\"" }, "geometry": { "type": "Point", "coordinates": [ 6.4957078, 46.5062788 ] } },
{ "type": "Feature", "properties": { "osm_id": "3007152044", "code": 2723, "fclass": "monument", "name": "Sculpture \" Rêveur\"" }, "geometry": { "type": "Point", "coordinates": [ 6.4958195, 46.506199 ] } },
{ "type": "Feature", "properties": { "osm_id": "3007152045", "code": 2723, "fclass": "monument", "name": "Sculpture \"Mont-Blanc\"" }, "geometry": { "type": "Point", "coordinates": [ 6.4958586, 46.5061731 ] } },
{ "type": "Feature", "properties": { "osm_id": "3007152046", "code": 2723, "fclass": "monument", "name": "Sculpture \"Inside out\"" }, "geometry": { "type": "Point", "coordinates": [ 6.4959518, 46.5061089 ] } },
{ "type": "Feature", "properties": { "osm_id": "3007152047", "code": 2723, "fclass": "monument", "name": "Sculpture \"Danse avec la pierre\"" }, "geometry": { "type": "Point", "coordinates": [ 6.4960003, 46.5060736 ] } },
{ "type": "Feature", "properties": { "osm_id": "3007152051", "code": 2723, "fclass": "monument", "name": "Sculpture \"Les sentiments inclinés\"" }, "geometry": { "type": "Point", "coordinates": [ 6.4962174, 46.5059206 ] } },
{ "type": "Feature", "properties": { "osm_id": "3007152052", "code": 2723, "fclass": "monument", "name": "Sculpture \"Il y a toujours quelque chose à faire\"" }, "geometry": { "type": "Point", "coordinates": [ 6.4961315, 46.5059815 ] } },
{ "type": "Feature", "properties": { "osm_id": "3007152053", "code": 2723, "fclass": "monument", "name": "Sculpture \"Espoir brut\"" }, "geometry": { "type": "Point", "coordinates": [ 6.4960886, 46.5060092 ] } },
{ "type": "Feature", "properties": { "osm_id": "3124588605", "code": 2723, "fclass": "monument", "name": null }, "geometry": { "type": "Point", "coordinates": [ 7.825286, 46.1611709 ] } },
{ "type": "Feature", "properties": { "osm_id": "3191311114", "code": 2723, "fclass": "monument", "name": null }, "geometry": { "type": "Point", "coordinates": [ 8.9755893, 46.0354911 ] } },
{ "type": "Feature", "properties": { "osm_id": "3239093795", "code": 2723, "fclass": "monument", "name": "barone Giovanni Antonio Marcacci" }, "geometry": { "type": "Point", "coordinates": [ 8.7916937, 46.1698036 ] } },
{ "type": "Feature", "properties": { "osm_id": "3239093803", "code": 2723, "fclass": "monument", "name": "Giovanni Battista Pioda" }, "geometry": { "type": "Point", "coordinates": [ 8.7918428, 46.1681635 ] } },
{ "type": "Feature", "properties": { "osm_id": "3258712412", "code": 2723, "fclass": "monument", "name": null }, "geometry": { "type": "Point", "coordinates": [ 7.3537808, 46.2423996 ] } },
{ "type": "Feature", "properties": { "osm_id": "3543341462", "code": 2723, "fclass": "monument", "name": null }, "geometry": { "type": "Point", "coordinates": [ 8.767625, 46.4668318 ] } },
{ "type": "Feature", "properties": { "osm_id": "3679858608", "code": 2723, "fclass": "monument", "name": "Mire nord de l'Observatoire de Neuchâtel" }, "geometry": { "type": "Point", "coordinates": [ 6.9537721, 47.0238405 ] } },
{ "type": "Feature", "properties": { "osm_id": "3681235120", "code": 2723, "fclass": "monument", "name": null }, "geometry": { "type": "Point", "coordinates": [ 6.7215664, 46.9306539 ] } },
{ "type": "Feature", "properties": { "osm_id": "3687711428", "code": 2723, "fclass": "monument", "name": "Roue de moulin" }, "geometry": { "type": "Point", "coordinates": [ 7.126221, 47.2960729 ] } },
{ "type": "Feature", "properties": { "osm_id": "3723275394", "code": 2723, "fclass": "monument", "name": null }, "geometry": { "type": "Point", "coordinates": [ 8.7496657, 47.1241438 ] } },
{ "type": "Feature", "properties": { "osm_id": "3723275397", "code": 2723, "fclass": "monument", "name": null }, "geometry": { "type": "Point", "coordinates": [ 8.7496228, 47.1241529 ] } },
{ "type": "Feature", "properties": { "osm_id": "3732088720", "code": 2723, "fclass": "monument", "name": null }, "geometry": { "type": "Point", "coordinates": [ 8.7494553, 46.2027774 ] } },
{ "type": "Feature", "properties": { "osm_id": "3943449769", "code": 2723, "fclass": "monument", "name": "Prundhaus" }, "geometry": { "type": "Point", "coordinates": [ 9.6479903, 46.9821272 ] } },
{ "type": "Feature", "properties": { "osm_id": "4213950989", "code": 2723, "fclass": "monument", "name": "Emmet Kreuz 1798" }, "geometry": { "type": "Point", "coordinates": [ 8.2696438, 47.380088 ] } },
{ "type": "Feature", "properties": { "osm_id": "4213956925", "code": 2723, "fclass": "monument", "name": null }, "geometry": { "type": "Point", "coordinates": [ 8.9804884, 45.9056315 ] } },
{ "type": "Feature", "properties": { "osm_id": "4287105079", "code": 2723, "fclass": "monument", "name": "Isloch" }, "geometry": { "type": "Point", "coordinates": [ 8.373474, 47.4796925 ] } },
{ "type": "Feature", "properties": { "osm_id": "4361107457", "code": 2723, "fclass": "monument", "name": "Le Bec sur Lajoux" }, "geometry": { "type": "Point", "coordinates": [ 7.1383568, 47.2789209 ] } },
{ "type": "Feature", "properties": { "osm_id": "4417866590", "code": 2723, "fclass": "monument", "name": null }, "geometry": { "type": "Point", "coordinates": [ 9.3040907, 47.5285353 ] } },
{ "type": "Feature", "properties": { "osm_id": "4439498390", "code": 2723, "fclass": "monument", "name": "Wildschwein" }, "geometry": { "type": "Point", "coordinates": [ 7.5499426, 47.1367706 ] } },
{ "type": "Feature", "properties": { "osm_id": "4439498391", "code": 2723, "fclass": "monument", "name": null }, "geometry": { "type": "Point", "coordinates": [ 7.5495551, 47.1383566 ] } },
{ "type": "Feature", "properties": { "osm_id": "4573960391", "code": 2723, "fclass": "monument", "name": "Dreiländermonument" }, "geometry": { "type": "Point", "coordinates": [ 7.5897715, 47.5885409 ] } },
{ "type": "Feature", "properties": { "osm_id": "4616351753", "code": 2723, "fclass": "monument", "name": null }, "geometry": { "type": "Point", "coordinates": [ 7.5314505, 46.2562709 ] } },
{ "type": "Feature", "properties": { "osm_id": "4632550935", "code": 2723, "fclass": "monument", "name": null }, "geometry": { "type": "Point", "coordinates": [ 8.4026767, 47.4013951 ] } },
{ "type": "Feature", "properties": { "osm_id": "4794086168", "code": 2723, "fclass": "monument", "name": "Toro" }, "geometry": { "type": "Point", "coordinates": [ 8.8001798, 46.1696715 ] } },
{ "type": "Feature", "properties": { "osm_id": "4794102930", "code": 2723, "fclass": "monument", "name": "Giuseppe Cattori" }, "geometry": { "type": "Point", "coordinates": [ 8.8017548, 46.1710556 ] } },
{ "type": "Feature", "properties": { "osm_id": "4854152865", "code": 2723, "fclass": "monument", "name": "Hs Conrad von Meiss" }, "geometry": { "type": "Point", "coordinates": [ 8.5115792, 47.3395641 ] } },
{ "type": "Feature", "properties": { "osm_id": "4990466126", "code": 2723, "fclass": "monument", "name": null }, "geometry": { "type": "Point", "coordinates": [ 7.3254792, 46.2634588 ] } },
{ "type": "Feature", "properties": { "osm_id": "5097570136", "code": 2723, "fclass": "monument", "name": "Käppelijoch" }, "geometry": { "type": "Point", "coordinates": [ 7.5898153, 47.5600561 ] } },
{ "type": "Feature", "properties": { "osm_id": "5167108022", "code": 2723, "fclass": "monument", "name": "Muglin da Glatsch / Gletschermühle" }, "geometry": { "type": "Point", "coordinates": [ 10.1181253, 46.7671586 ] } },
{ "type": "Feature", "properties": { "osm_id": "5176293321", "code": 2723, "fclass": "monument", "name": "Stupa" }, "geometry": { "type": "Point", "coordinates": [ 6.0783482, 46.1780809 ] } },
{ "type": "Feature", "properties": { "osm_id": "5371138197", "code": 2723, "fclass": "monument", "name": "der Föhn" }, "geometry": { "type": "Point", "coordinates": [ 8.6243675, 46.9035653 ] } },
{ "type": "Feature", "properties": { "osm_id": "5371153082", "code": 2723, "fclass": "monument", "name": "Anker" }, "geometry": { "type": "Point", "coordinates": [ 8.621795, 46.9013485 ] } },
{ "type": "Feature", "properties": { "osm_id": "5401844223", "code": 2723, "fclass": "monument", "name": "Exodus" }, "geometry": { "type": "Point", "coordinates": [ 8.8569484, 47.1948286 ] } },
{ "type": "Feature", "properties": { "osm_id": "5615058222", "code": 2723, "fclass": "monument", "name": "Pavillon" }, "geometry": { "type": "Point", "coordinates": [ 8.860739, 47.3873419 ] } },
{ "type": "Feature", "properties": { "osm_id": "5747430023", "code": 2723, "fclass": "monument", "name": null }, "geometry": { "type": "Point", "coordinates": [ 9.0119565, 47.0886177 ] } },
{ "type": "Feature", "properties": { "osm_id": "5836383290", "code": 2723, "fclass": "monument", "name": "Dreispitz Brunnen" }, "geometry": { "type": "Point", "coordinates": [ 9.232548, 47.5389554 ] } },
{ "type": "Feature", "properties": { "osm_id": "5998141330", "code": 2723, "fclass": "monument", "name": "Wandbild der Schwestern Baumann" }, "geometry": { "type": "Point", "coordinates": [ 8.8478039, 47.4192971 ] } },
{ "type": "Feature", "properties": { "osm_id": "6015476489", "code": 2723, "fclass": "monument", "name": "Borne frontière #29" }, "geometry": { "type": "Point", "coordinates": [ 6.0354786, 46.1348305 ] } },
{ "type": "Feature", "properties": { "osm_id": "6015488885", "code": 2723, "fclass": "monument", "name": "Borne frontière #30" }, "geometry": { "type": "Point", "coordinates": [ 6.0355703, 46.1351083 ] } },
{ "type": "Feature", "properties": { "osm_id": "6015544085", "code": 2723, "fclass": "monument", "name": "Borne frontière #27" }, "geometry": { "type": "Point", "coordinates": [ 6.0354111, 46.1343933 ] } },
{ "type": "Feature", "properties": { "osm_id": "6015636689", "code": 2723, "fclass": "monument", "name": "Borne frontière #32" }, "geometry": { "type": "Point", "coordinates": [ 6.0361035, 46.1365772 ] } },
{ "type": "Feature", "properties": { "osm_id": "6053255189", "code": 2723, "fclass": "monument", "name": null }, "geometry": { "type": "Point", "coordinates": [ 8.9606931, 46.0200841 ] } },
{ "type": "Feature", "properties": { "osm_id": "6106289986", "code": 2723, "fclass": "monument", "name": "Freiheitskämpfe 1622" }, "geometry": { "type": "Point", "coordinates": [ 9.6368857, 46.9889314 ] } },
{ "type": "Feature", "properties": { "osm_id": "6134880413", "code": 2723, "fclass": "monument", "name": "St Jakob Schlacht 1444" }, "geometry": { "type": "Point", "coordinates": [ 7.6176882, 47.541918 ] } },
{ "type": "Feature", "properties": { "osm_id": "6187413986", "code": 2723, "fclass": "monument", "name": null }, "geometry": { "type": "Point", "coordinates": [ 6.1695971, 46.2757974 ] } },
{ "type": "Feature", "properties": { "osm_id": "6187420485", "code": 2723, "fclass": "monument", "name": "Tumulus de Mariamont" }, "geometry": { "type": "Point", "coordinates": [ 6.1229285, 46.299706 ] } },
{ "type": "Feature", "properties": { "osm_id": "6415198939", "code": 2723, "fclass": "monument", "name": "Peter Parkanyi, 2016" }, "geometry": { "type": "Point", "coordinates": [ 6.1258735, 46.23115 ] } },
{ "type": "Feature", "properties": { "osm_id": "6434122089", "code": 2723, "fclass": "monument", "name": null }, "geometry": { "type": "Point", "coordinates": [ 8.6193464, 47.4872534 ] } },
{ "type": "Feature", "properties": { "osm_id": "6512554390", "code": 2723, "fclass": "monument", "name": "Raccard ancien" }, "geometry": { "type": "Point", "coordinates": [ 6.9785077, 46.0871792 ] } },
{ "type": "Feature", "properties": { "osm_id": "6512554391", "code": 2723, "fclass": "monument", "name": "Ruine" }, "geometry": { "type": "Point", "coordinates": [ 6.9783367, 46.0870418 ] } },
{ "type": "Feature", "properties": { "osm_id": "6575243486", "code": 2723, "fclass": "monument", "name": "X" }, "geometry": { "type": "Point", "coordinates": [ 6.9054877, 46.3038472 ] } },
{ "type": "Feature", "properties": { "osm_id": "6575243585", "code": 2723, "fclass": "monument", "name": "Grotte du Scex du Chatelard" }, "geometry": { "type": "Point", "coordinates": [ 6.9332129, 46.3977666 ] } },
{ "type": "Feature", "properties": { "osm_id": "6575243586", "code": 2723, "fclass": "monument", "name": "Baume ď Ogens" }, "geometry": { "type": "Point", "coordinates": [ 6.7352689, 46.7118992 ] } },
{ "type": "Feature", "properties": { "osm_id": "6575243587", "code": 2723, "fclass": "monument", "name": "Pierre avec cupules" }, "geometry": { "type": "Point", "coordinates": [ 6.8880379, 46.8831374 ] } },
{ "type": "Feature", "properties": { "osm_id": "6575243685", "code": 2723, "fclass": "monument", "name": "Pierre avec 3 cupules" }, "geometry": { "type": "Point", "coordinates": [ 6.8880781, 46.8833872 ] } },
{ "type": "Feature", "properties": { "osm_id": "6587435286", "code": 2723, "fclass": "monument", "name": "Pierre à cupules" }, "geometry": { "type": "Point", "coordinates": [ 6.4971436, 46.7583315 ] } },
{ "type": "Feature", "properties": { "osm_id": "6587435287", "code": 2723, "fclass": "monument", "name": "Bloc erratique et pierre à cupules" }, "geometry": { "type": "Point", "coordinates": [ 6.4983515, 46.7597634 ] } },
{ "type": "Feature", "properties": { "osm_id": "6587435288", "code": 2723, "fclass": "monument", "name": "Pierre des Pléiades" }, "geometry": { "type": "Point", "coordinates": [ 6.4073278, 46.5598341 ] } },
{ "type": "Feature", "properties": { "osm_id": "6587435289", "code": 2723, "fclass": "monument", "name": "Pierre aux écouelles" }, "geometry": { "type": "Point", "coordinates": [ 6.2804198, 46.5008746 ] } },
{ "type": "Feature", "properties": { "osm_id": "6587435290", "code": 2723, "fclass": "monument", "name": "Pierre du serpent" }, "geometry": { "type": "Point", "coordinates": [ 6.2765218, 46.4612274 ] } },
{ "type": "Feature", "properties": { "osm_id": "6587435291", "code": 2723, "fclass": "monument", "name": "Pierre à Phoebus (pierre à cupules)" }, "geometry": { "type": "Point", "coordinates": [ 6.2743785, 46.4747566 ] } },
{ "type": "Feature", "properties": { "osm_id": "6587435293", "code": 2723, "fclass": "monument", "name": "Blocs erratiques (menhirs ? )" }, "geometry": { "type": "Point", "coordinates": [ 6.7690868, 46.9085822 ] } },
{ "type": "Feature", "properties": { "osm_id": "6587435295", "code": 2723, "fclass": "monument", "name": "Menhirs" }, "geometry": { "type": "Point", "coordinates": [ 6.769094, 46.9085733 ] } },
{ "type": "Feature", "properties": { "osm_id": "6587435296", "code": 2723, "fclass": "monument", "name": "Cromlec'h ?" }, "geometry": { "type": "Point", "coordinates": [ 6.8881037, 46.8826462 ] } },
{ "type": "Feature", "properties": { "osm_id": "6587435297", "code": 2723, "fclass": "monument", "name": "Pierres gravées?" }, "geometry": { "type": "Point", "coordinates": [ 6.8879156, 46.8824562 ] } },
{ "type": "Feature", "properties": { "osm_id": "6587435298", "code": 2723, "fclass": "monument", "name": "Pierre à cupules" }, "geometry": { "type": "Point", "coordinates": [ 6.8873166, 46.882177 ] } },
{ "type": "Feature", "properties": { "osm_id": "6587435299", "code": 2723, "fclass": "monument", "name": "Pierre à cupules" }, "geometry": { "type": "Point", "coordinates": [ 6.8883213, 46.8825028 ] } },
{ "type": "Feature", "properties": { "osm_id": "6587435300", "code": 2723, "fclass": "monument", "name": "Pierres à cupules" }, "geometry": { "type": "Point", "coordinates": [ 6.8883484, 46.8825533 ] } },
{ "type": "Feature", "properties": { "osm_id": "6587435301", "code": 2723, "fclass": "monument", "name": "Pierre à cupules" }, "geometry": { "type": "Point", "coordinates": [ 6.8871985, 46.8823632 ] } },
{ "type": "Feature", "properties": { "osm_id": "6587443386", "code": 2723, "fclass": "monument", "name": "Pierre" }, "geometry": { "type": "Point", "coordinates": [ 6.2765034, 46.4614166 ] } },
{ "type": "Feature", "properties": { "osm_id": "6587443485", "code": 2723, "fclass": "monument", "name": "Alignement de menhirs" }, "geometry": { "type": "Point", "coordinates": [ 6.4536172, 46.6792666 ] } },
{ "type": "Feature", "properties": { "osm_id": "6587443486", "code": 2723, "fclass": "monument", "name": "Trois pierres gravées ?" }, "geometry": { "type": "Point", "coordinates": [ 6.887891, 46.8824355 ] } },
{ "type": "Feature", "properties": { "osm_id": "6587443487", "code": 2723, "fclass": "monument", "name": "Alignement de pierres?" }, "geometry": { "type": "Point", "coordinates": [ 6.8878189, 46.8826204 ] } },
{ "type": "Feature", "properties": { "osm_id": "6587443585", "code": 2723, "fclass": "monument", "name": "Pierre de dolmen" }, "geometry": { "type": "Point", "coordinates": [ 6.7443925, 46.8899658 ] } },
{ "type": "Feature", "properties": { "osm_id": "6587443685", "code": 2723, "fclass": "monument", "name": "Pierre à cupules" }, "geometry": { "type": "Point", "coordinates": [ 6.8875082, 46.8825472 ] } },
{ "type": "Feature", "properties": { "osm_id": "6587443785", "code": 2723, "fclass": "monument", "name": "Pierre à cupules" }, "geometry": { "type": "Point", "coordinates": [ 6.8883459, 46.882568 ] } },
{ "type": "Feature", "properties": { "osm_id": "6596760985", "code": 2723, "fclass": "monument", "name": "Pierre aux Vierges (pierre à cupules)" }, "geometry": { "type": "Point", "coordinates": [ 6.5868453, 46.5618721 ] } },
{ "type": "Feature", "properties": { "osm_id": "6596846885", "code": 2723, "fclass": "monument", "name": "Pierre de Bon Château" }, "geometry": { "type": "Point", "coordinates": [ 6.4980513, 46.7597421 ] } },
{ "type": "Feature", "properties": { "osm_id": "6609410885", "code": 2723, "fclass": "monument", "name": "Pierre à cupules" }, "geometry": { "type": "Point", "coordinates": [ 6.4969444, 46.7583333 ] } },
{ "type": "Feature", "properties": { "osm_id": "6661753946", "code": 2723, "fclass": "monument", "name": "Bovy" }, "geometry": { "type": "Point", "coordinates": [ 7.769275, 46.535111 ] } },
{ "type": "Feature", "properties": { "osm_id": "6681871385", "code": 2723, "fclass": "monument", "name": "Alignement de menhirs" }, "geometry": { "type": "Point", "coordinates": [ 6.4536137, 46.6792316 ] } },
{ "type": "Feature", "properties": { "osm_id": "6682090686", "code": 2723, "fclass": "monument", "name": "Pierre des Pléiades" }, "geometry": { "type": "Point", "coordinates": [ 6.4073054, 46.5597376 ] } },
{ "type": "Feature", "properties": { "osm_id": "6682099285", "code": 2723, "fclass": "monument", "name": "Menhir" }, "geometry": { "type": "Point", "coordinates": [ 6.1299935, 46.3053692 ] } },
{ "type": "Feature", "properties": { "osm_id": "6682099286", "code": 2723, "fclass": "monument", "name": "Pierre à Pény" }, "geometry": { "type": "Point", "coordinates": [ 6.1597125, 46.2977753 ] } },
{ "type": "Feature", "properties": { "osm_id": "6710210996", "code": 2723, "fclass": "monument", "name": "Pierre du Chacrau" }, "geometry": { "type": "Point", "coordinates": [ 6.2802655, 46.476388 ] } },
{ "type": "Feature", "properties": { "osm_id": "6710528586", "code": 2723, "fclass": "monument", "name": "Pierre à cupules" }, "geometry": { "type": "Point", "coordinates": [ 6.2815384, 46.4996351 ] } },
{ "type": "Feature", "properties": { "osm_id": "6712646985", "code": 2723, "fclass": "monument", "name": "Pierre aux écouelles" }, "geometry": { "type": "Point", "coordinates": [ 6.2803939, 46.5009243 ] } },
{ "type": "Feature", "properties": { "osm_id": "6746461485", "code": 2723, "fclass": "monument", "name": "Pierre à Mille Trous" }, "geometry": { "type": "Point", "coordinates": [ 6.2754939, 46.4638992 ] } },
{ "type": "Feature", "properties": { "osm_id": "6746461585", "code": 2723, "fclass": "monument", "name": "Pierre du Serpent" }, "geometry": { "type": "Point", "coordinates": [ 6.2733044, 46.4662579 ] } },
{ "type": "Feature", "properties": { "osm_id": "6746622486", "code": 2723, "fclass": "monument", "name": "Pierre à Phébou" }, "geometry": { "type": "Point", "coordinates": [ 6.2762477, 46.4715597 ] } },
{ "type": "Feature", "properties": { "osm_id": "6746622487", "code": 2723, "fclass": "monument", "name": "Pierre à cupules" }, "geometry": { "type": "Point", "coordinates": [ 6.276117, 46.4715494 ] } },
{ "type": "Feature", "properties": { "osm_id": "6746622488", "code": 2723, "fclass": "monument", "name": "Pierre à cupules" }, "geometry": { "type": "Point", "coordinates": [ 6.2768984, 46.4720156 ] } },
{ "type": "Feature", "properties": { "osm_id": "6751145685", "code": 2723, "fclass": "monument", "name": "Ancien Tunnel" }, "geometry": { "type": "Point", "coordinates": [ 7.1951489, 47.1824459 ] } },
{ "type": "Feature", "properties": { "osm_id": "6757241257", "code": 2723, "fclass": "monument", "name": null }, "geometry": { "type": "Point", "coordinates": [ 6.1219914, 46.2269407 ] } },
{ "type": "Feature", "properties": { "osm_id": "6799908086", "code": 2723, "fclass": "monument", "name": "Pierre du Chevrier ou Pierre des Druides" }, "geometry": { "type": "Point", "coordinates": [ 6.970912, 46.3265418 ] } },
{ "type": "Feature", "properties": { "osm_id": "6814369581", "code": 2723, "fclass": "monument", "name": null }, "geometry": { "type": "Point", "coordinates": [ 6.1706134, 46.275743 ] } },
{ "type": "Feature", "properties": { "osm_id": "6855684685", "code": 2723, "fclass": "monument", "name": "Camp retranché préhistorique" }, "geometry": { "type": "Point", "coordinates": [ 6.1204578, 46.2979549 ] } },
{ "type": "Feature", "properties": { "osm_id": "6993542754", "code": 2723, "fclass": "monument", "name": "Aux Soldats de 14/18 et 39/45" }, "geometry": { "type": "Point", "coordinates": [ 6.8304243, 47.100794 ] } },
{ "type": "Feature", "properties": { "osm_id": "7011964040", "code": 2723, "fclass": "monument", "name": "A La Suisse Consolatrice La France Reconnaissante 1914 - 1918" }, "geometry": { "type": "Point", "coordinates": [ 8.6264503, 47.6943552 ] } },
{ "type": "Feature", "properties": { "osm_id": "7200789009", "code": 2723, "fclass": "monument", "name": "Monumento a Giovanni Battista Pioda" }, "geometry": { "type": "Point", "coordinates": [ 8.7916778, 46.1681967 ] } },
{ "type": "Feature", "properties": { "osm_id": "7322795385", "code": 2723, "fclass": "monument", "name": "Sculpture Jerôme Rudin" }, "geometry": { "type": "Point", "coordinates": [ 7.2261957, 46.1759649 ] } },
{ "type": "Feature", "properties": { "osm_id": "7686575702", "code": 2723, "fclass": "monument", "name": null }, "geometry": { "type": "Point", "coordinates": [ 7.070457, 46.2832046 ] } },
{ "type": "Feature", "properties": { "osm_id": "7725900292", "code": 2723, "fclass": "monument", "name": "Wettersäule" }, "geometry": { "type": "Point", "coordinates": [ 9.435477, 47.5123323 ] } },
{ "type": "Feature", "properties": { "osm_id": "7725924900", "code": 2723, "fclass": "monument", "name": "Thomas Bornhauser (1799-1856)" }, "geometry": { "type": "Point", "coordinates": [ 9.4292178, 47.5152202 ] } },
{ "type": "Feature", "properties": { "osm_id": "7735914185", "code": 2723, "fclass": "monument", "name": "Chiesa sconsacrata" }, "geometry": { "type": "Point", "coordinates": [ 9.1269127, 46.2303338 ] } },
{ "type": "Feature", "properties": { "osm_id": "7775115582", "code": 2723, "fclass": "monument", "name": null }, "geometry": { "type": "Point", "coordinates": [ 9.4020134, 47.2701909 ] } },
{ "type": "Feature", "properties": { "osm_id": "7906071377", "code": 2723, "fclass": "monument", "name": null }, "geometry": { "type": "Point", "coordinates": [ 8.6298026, 47.2710397 ] } },
{ "type": "Feature", "properties": { "osm_id": "8047980873", "code": 2723, "fclass": "monument", "name": "Delille-Denkmal" }, "geometry": { "type": "Point", "coordinates": [ 7.6294926, 47.4913744 ] } },
{ "type": "Feature", "properties": { "osm_id": "8220714710", "code": 2723, "fclass": "monument", "name": "Dreigemeindestein" }, "geometry": { "type": "Point", "coordinates": [ 8.6289684, 47.4087127 ] } },
{ "type": "Feature", "properties": { "osm_id": "8284885625", "code": 2723, "fclass": "monument", "name": null }, "geometry": { "type": "Point", "coordinates": [ 7.6242048, 47.1354977 ] } },
{ "type": "Feature", "properties": { "osm_id": "8479248295", "code": 2723, "fclass": "monument", "name": "Valle maggia pietra viva" }, "geometry": { "type": "Point", "coordinates": [ 8.7536398, 46.1945274 ] } },
{ "type": "Feature", "properties": { "osm_id": "8618018905", "code": 2723, "fclass": "monument", "name": null }, "geometry": { "type": "Point", "coordinates": [ 8.6337061, 47.6925604 ] } },
{ "type": "Feature", "properties": { "osm_id": "9050133210", "code": 2723, "fclass": "monument", "name": "Granitblock" }, "geometry": { "type": "Point", "coordinates": [ 8.6015189, 46.9935002 ] } },
{ "type": "Feature", "properties": { "osm_id": "9150790204", "code": 2723, "fclass": "monument", "name": null }, "geometry": { "type": "Point", "coordinates": [ 8.6628915, 46.875232 ] } },
{ "type": "Feature", "properties": { "osm_id": "9216169417", "code": 2723, "fclass": "monument", "name": null }, "geometry": { "type": "Point", "coordinates": [ 6.1428423, 46.4067123 ] } },
{ "type": "Feature", "properties": { "osm_id": "9283595377", "code": 2723, "fclass": "monument", "name": null }, "geometry": { "type": "Point", "coordinates": [ 8.5476229, 47.0494022 ] } },
{ "type": "Feature", "properties": { "osm_id": "9425612417", "code": 2723, "fclass": "monument", "name": "Römischer Pfad/Ausblick" }, "geometry": { "type": "Point", "coordinates": [ 8.215991, 47.4778324 ] } },
{ "type": "Feature", "properties": { "osm_id": "9460816931", "code": 2723, "fclass": "monument", "name": "Kalkofen" }, "geometry": { "type": "Point", "coordinates": [ 7.7611633, 46.6854016 ] } },
{ "type": "Feature", "properties": { "osm_id": "9662886374", "code": 2723, "fclass": "monument", "name": "Glocke von 1589" }, "geometry": { "type": "Point", "coordinates": [ 9.0497685, 47.4663835 ] } },
{ "type": "Feature", "properties": { "osm_id": "9739309954", "code": 2723, "fclass": "monument", "name": "Teufelskeller" }, "geometry": { "type": "Point", "coordinates": [ 8.2997602, 47.4629064 ] } },
{ "type": "Feature", "properties": { "osm_id": "9741157921", "code": 2723, "fclass": "monument", "name": "Fiselstuden 970m" }, "geometry": { "type": "Point", "coordinates": [ 8.5408128, 47.1193184 ] } },
{ "type": "Feature", "properties": { "osm_id": "9741169718", "code": 2723, "fclass": "monument", "name": "Blasenberg 740m" }, "geometry": { "type": "Point", "coordinates": [ 8.529523, 47.1576984 ] } },
{ "type": "Feature", "properties": { "osm_id": "9959164710", "code": 2723, "fclass": "monument", "name": "Kakadu" }, "geometry": { "type": "Point", "coordinates": [ 7.8236366, 47.2613943 ] } },
{ "type": "Feature", "properties": { "osm_id": "10158025948", "code": 2723, "fclass": "monument", "name": null }, "geometry": { "type": "Point", "coordinates": [ 6.4931884, 46.5058957 ] } },
{ "type": "Feature", "properties": { "osm_id": "10228757684", "code": 2723, "fclass": "monument", "name": null }, "geometry": { "type": "Point", "coordinates": [ 8.9319343, 46.3691042 ] } },
{ "type": "Feature", "properties": { "osm_id": "10765921300", "code": 2723, "fclass": "monument", "name": "Umbau Englischer Garten 2020" }, "geometry": { "type": "Point", "coordinates": [ 7.8674631, 46.6906486 ] } },
{ "type": "Feature", "properties": { "osm_id": "10778763533", "code": 2723, "fclass": "monument", "name": null }, "geometry": { "type": "Point", "coordinates": [ 9.1411022, 46.2461282 ] } },
{ "type": "Feature", "properties": { "osm_id": "10889880228", "code": 2723, "fclass": "monument", "name": "Ferme des Troncs" }, "geometry": { "type": "Point", "coordinates": [ 6.7608167, 46.5887884 ] } },
{ "type": "Feature", "properties": { "osm_id": "10968200418", "code": 2723, "fclass": "monument", "name": null }, "geometry": { "type": "Point", "coordinates": [ 6.2652385, 46.3926965 ] } },
{ "type": "Feature", "properties": { "osm_id": "10968219157", "code": 2723, "fclass": "monument", "name": null }, "geometry": { "type": "Point", "coordinates": [ 6.2641813, 46.3928664 ] } },
{ "type": "Feature", "properties": { "osm_id": "11065580936", "code": 2723, "fclass": "monument", "name": null }, "geometry": { "type": "Point", "coordinates": [ 7.3622607, 46.2349849 ] } },
{ "type": "Feature", "properties": { "osm_id": "11104294610", "code": 2723, "fclass": "monument", "name": "Tour de guet" }, "geometry": { "type": "Point", "coordinates": [ 7.0810775, 46.5828324 ] } },
{ "type": "Feature", "properties": { "osm_id": "11104304907", "code": 2723, "fclass": "monument", "name": "Les remparts de Gruyère" }, "geometry": { "type": "Point", "coordinates": [ 7.0815873, 46.5830185 ] } },
{ "type": "Feature", "properties": { "osm_id": "11104320905", "code": 2723, "fclass": "monument", "name": "Les remparts de gruyère" }, "geometry": { "type": "Point", "coordinates": [ 7.0807514, 46.5838177 ] } },
{ "type": "Feature", "properties": { "osm_id": "11104867005", "code": 2723, "fclass": "monument", "name": null }, "geometry": { "type": "Point", "coordinates": [ 7.0790779, 46.5818517 ] } },
{ "type": "Feature", "properties": { "osm_id": "11122008195", "code": 2723, "fclass": "monument", "name": null }, "geometry": { "type": "Point", "coordinates": [ 8.7216702, 47.2713924 ] } },
{ "type": "Feature", "properties": { "osm_id": "11247057670", "code": 2723, "fclass": "monument", "name": "Madonnina di Pianezzo" }, "geometry": { "type": "Point", "coordinates": [ 9.0291695, 46.169122 ] } },
{ "type": "Feature", "properties": { "osm_id": "11434576578", "code": 2723, "fclass": "monument", "name": "Table astronomique de Chaumont" }, "geometry": { "type": "Point", "coordinates": [ 6.9537946, 47.0229151 ] } },
{ "type": "Feature", "properties": { "osm_id": "11573406926", "code": 2723, "fclass": "monument", "name": "Cappella" }, "geometry": { "type": "Point", "coordinates": [ 9.0255174, 46.1700766 ] } },
{ "type": "Feature", "properties": { "osm_id": "11758511575", "code": 2723, "fclass": "monument", "name": null }, "geometry": { "type": "Point", "coordinates": [ 8.5522082, 47.1951666 ] } },
{ "type": "Feature", "properties": { "osm_id": "11837744216", "code": 2723, "fclass": "monument", "name": "Fontana Pedrazzini" }, "geometry": { "type": "Point", "coordinates": [ 8.7990518, 46.1671796 ] } },
{ "type": "Feature", "properties": { "osm_id": "11891915769", "code": 2723, "fclass": "monument", "name": null }, "geometry": { "type": "Point", "coordinates": [ 6.3525008, 46.4844631 ] } },
{ "type": "Feature", "properties": { "osm_id": "11891948569", "code": 2723, "fclass": "monument", "name": null }, "geometry": { "type": "Point", "coordinates": [ 6.3513369, 46.4836792 ] } },
{ "type": "Feature", "properties": { "osm_id": "11956156522", "code": 2723, "fclass": "monument", "name": null }, "geometry": { "type": "Point", "coordinates": [ 7.9306674, 47.2787758 ] } },
{ "type": "Feature", "properties": { "osm_id": "12177934584", "code": 2723, "fclass": "monument", "name": null }, "geometry": { "type": "Point", "coordinates": [ 7.6517458, 47.4833929 ] } },
{ "type": "Feature", "properties": { "osm_id": "12246372051", "code": 2723, "fclass": "monument", "name": null }, "geometry": { "type": "Point", "coordinates": [ 7.9290279, 47.2790327 ] } },
{ "type": "Feature", "properties": { "osm_id": "12323899325", "code": 2723, "fclass": "monument", "name": null }, "geometry": { "type": "Point", "coordinates": [ 8.9572173, 46.0108333 ] } },
{ "type": "Feature", "properties": { "osm_id": "12698921809", "code": 2723, "fclass": "monument", "name": null }, "geometry": { "type": "Point", "coordinates": [ 7.797372, 47.5567054 ] } },
{ "type": "Feature", "properties": { "osm_id": "12855606101", "code": 2723, "fclass": "monument", "name": "Saaser-Grubenstein" }, "geometry": { "type": "Point", "coordinates": [ 7.1734937, 47.0172973 ] } },
{ "type": "Feature", "properties": { "osm_id": "12921420489", "code": 2723, "fclass": "monument", "name": "Großherzog Friedrichs Blick" }, "geometry": { "type": "Point", "coordinates": [ 9.8309172, 46.4726365 ] } },
{ "type": "Feature", "properties": { "osm_id": "12922777441", "code": 2723, "fclass": "monument", "name": "Pierre aux Armes des Veillon" }, "geometry": { "type": "Point", "coordinates": [ 7.017464, 46.2499561 ] } },
{ "type": "Feature", "properties": { "osm_id": "12997719901", "code": 2723, "fclass": "monument", "name": null }, "geometry": { "type": "Point", "coordinates": [ 6.1415265, 46.2081835 ] } },
{ "type": "Feature", "properties": { "osm_id": "13057739879", "code": 2723, "fclass": "monument", "name": "Madonna di Fatima" }, "geometry": { "type": "Point", "coordinates": [ 8.567541, 46.5560954 ] } },
{ "type": "Feature", "properties": { "osm_id": "13077596064", "code": 2723, "fclass": "monument", "name": "Telefon Kabine" }, "geometry": { "type": "Point", "coordinates": [ 7.6084788, 46.8136286 ] } },
{ "type": "Feature", "properties": { "osm_id": "13081461102", "code": 2723, "fclass": "monument", "name": "1825.1958" }, "geometry": { "type": "Point", "coordinates": [ 6.7322214, 46.8605163 ] } },
{ "type": "Feature", "properties": { "osm_id": "13083983309", "code": 2723, "fclass": "monument", "name": "Baricentro del Cantone Ticino" }, "geometry": { "type": "Point", "coordinates": [ 8.809027, 46.2945967 ] } },
{ "type": "Feature", "properties": { "osm_id": "13084392154", "code": 2723, "fclass": "monument", "name": "Flugzeugkreisel" }, "geometry": { "type": "Point", "coordinates": [ 8.7479766, 47.3899134 ] } },
{ "type": "Feature", "properties": { "osm_id": "13084392155", "code": 2723, "fclass": "monument", "name": "Rösslikreisel" }, "geometry": { "type": "Point", "coordinates": [ 8.7550194, 47.3861633 ] } },
{ "type": "Feature", "properties": { "osm_id": "13111986069", "code": 2723, "fclass": "monument", "name": "Station météorologique historique" }, "geometry": { "type": "Point", "coordinates": [ 7.0733092, 46.1015157 ] } },
{ "type": "Feature", "properties": { "osm_id": "13204789401", "code": 2723, "fclass": "monument", "name": "Glaube, Hoffnung, Liebe" }, "geometry": { "type": "Point", "coordinates": [ 8.8664724, 47.655064 ] } },
{ "type": "Feature", "properties": { "osm_id": "13692279401", "code": 2723, "fclass": "monument", "name": "Brusio Spiral Viaduct" }, "geometry": { "type": "Point", "coordinates": [ 10.1279083, 46.2541813 ] } },
{ "type": "Feature", "properties": { "osm_id": "13703620514", "code": 2723, "fclass": "monument", "name": "Colonne météorologique" }, "geometry": { "type": "Point", "coordinates": [ 6.1462762, 46.206673 ] } },
{ "type": "Feature", "properties": { "osm_id": "13970938601", "code": 2723, "fclass": "monument", "name": null }, "geometry": { "type": "Point", "coordinates": [ 8.8460866, 46.6714866 ] } }
]
}
